<?xml version="1.0" encoding="UTF-8"?>
<kml xmlns="http://www.opengis.net/kml/2.2"><Document>
<name>神田カレーグランプリ2026 参加店（非公式）</name>
<Style id="c1"><IconStyle><color>ff167999</color><scale>1.1</scale><Icon><href>http://maps.google.com/mapfiles/kml/paddle/wht-blank.png</href></Icon></IconStyle></Style>
<Style id="c2"><IconStyle><color>ff2865e6</color><scale>1.1</scale><Icon><href>http://maps.google.com/mapfiles/kml/paddle/wht-blank.png</href></Icon></IconStyle></Style>
<Style id="c3"><IconStyle><color>ff2f16de</color><scale>1.1</scale><Icon><href>http://maps.google.com/mapfiles/kml/paddle/wht-blank.png</href></Icon></IconStyle></Style>
<Style id="c4"><IconStyle><color>ff3b2cbe</color><scale>1.1</scale><Icon><href>http://maps.google.com/mapfiles/kml/paddle/wht-blank.png</href></Icon></IconStyle></Style>
<Style id="c5"><IconStyle><color>ff650892</color><scale>1.1</scale><Icon><href>http://maps.google.com/mapfiles/kml/paddle/wht-blank.png</href></Icon></IconStyle></Style>
<Style id="c6"><IconStyle><color>ffac5b18</color><scale>1.1</scale><Icon><href>http://maps.google.com/mapfiles/kml/paddle/wht-blank.png</href></Icon></IconStyle></Style>
<Style id="c7"><IconStyle><color>ff35a227</color><scale>1.1</scale><Icon><href>http://maps.google.com/mapfiles/kml/paddle/wht-blank.png</href></Icon></IconStyle></Style>
<Style id="c8"><IconStyle><color>ff1a167e</color><scale>1.1</scale><Icon><href>http://maps.google.com/mapfiles/kml/paddle/wht-blank.png</href></Icon></IconStyle></Style>
<Folder><name>欧風</name>
<Placemark><name>欧風カレー ガヴィアル 神保町店</name><styleUrl>#c1</styleUrl><description><![CDATA[【メニュー】<br>シーフードカレー ￥2,310<br>ポークカレー ￥1,980<br>チーズカレー（アーモンド添え） ￥1,760<br>【営業時間】<br>11:00～21:00（LO20:30）<br>【定休日】火、年末年始<br>【最寄駅】<br>地下鉄 神保町駅 A５,A7 徒歩1分<br>【住所】千代田区神田神保町1-9 KOALA BLDG.JIMBOCHO 2F<br>【電話】03-6273-7148<br>【お知らせ】<br>毎週火曜日が定休日です。<br>祝日も営業しています。<br>公式ページ: https://kanda-curry.com/ガヴィアル-2/]]></description><Point><coordinates>139.758433,35.695795,0</coordinates></Point></Placemark>
<Placemark><name>欧風カレー ソレイユ</name><styleUrl>#c1</styleUrl><description><![CDATA[【メニュー】<br>黒毛和牛のビーフカレー ￥2,150（オニオンフライはプラス￥120）<br>牛タンカレー温野菜添え ￥3,000<br>ドライカレー ￥1,950<br>【営業時間】<br>ランチ 11:30～15:00 (LO 14:30)<br>ディナー17:30～21:00 (LO 20:30)<br>【定休日】第1＆第3土曜・日・祝、お盆、年末年始<br>【最寄駅】<br>地下鉄 半蔵門駅 5番 麹町駅 3番 徒歩3分<br>【住所】千代田区二番町11-20 グンショウ二番町ビル 1F<br>【電話】03-6261-0184<br>【お知らせ】<br>【お盆休みのお知らせ】<br>お盆休み 8/11（火）～8/16（日）<br>よろしくお願いいたします。<br>（20260727）<br>カレーとライスが無くなった場合、早めに閉店する場合があります。<br>原材料高騰の為スタンプラリー期間中でも値上げさせて頂く可能性があります。<br>公式ページ: https://kanda-curry.com/欧風カレー-ソレイユ/]]></description><Point><coordinates>139.738717,35.68602,0</coordinates></Point></Placemark>
<Placemark><name>欧風カレー ボンディ秋葉原店</name><styleUrl>#c1</styleUrl><description><![CDATA[【メニュー】<br>チーズカレー ￥1,800<br>チキンカレー ￥1,800<br>野菜カレー ￥1,800<br>【営業時間】<br>ランチ 11:00～15:00（LO14:30）<br>ディナー 17:00～21:00（LO20:30）<br>【定休日】火曜日<br>【最寄駅】<br>JR秋葉原駅 電気街北口 徒歩4分<br>【住所】千代田区外神田4-2-6 AKIBA426ビル2F<br>【電話】03-5207-2968<br>公式ページ: https://kanda-curry.com/欧風カレー-ボンディ秋葉原店/]]></description><Point><coordinates>139.772049,35.700199,0</coordinates></Point></Placemark>
<Placemark><name>欧風カレー ボンディ 神田小川町店</name><styleUrl>#c1</styleUrl><description><![CDATA[【メニュー】<br>チキンカレー ¥1,800<br>チーズカレー ¥1,800<br>豪快スペアリブカレー ¥2,150<br>【営業時間】<br>平日ランチ 11:00～15:00(LO14:30)<br>平日ディナー 17:00～21:00(LO20:30)<br>土日祝 11:00～21:00(LO20:30)<br>【定休日】年末年始<br>【最寄駅】<br>半蔵門線、都営新宿・三田線 神保町駅 A9出口<br>都営新宿線 小川町駅 B7出口<br>JR 中央・総武線 御茶ノ水駅<br>【住所】千代田区神田小川町3‐9 AS ONE ビル2階<br>【電話】03－3295－5709<br>公式ページ: https://kanda-curry.com/?p=6]]></description><Point><coordinates>139.761718,35.693959,0</coordinates></Point></Placemark>
<Placemark><name>欧風カレー ボンディ 神保町本店</name><styleUrl>#c1</styleUrl><description><![CDATA[【メニュー】<br>ビーフカレー ￥1,800<br>ポークカレー ￥1,800<br>チキンカレー ￥1,800<br>【営業時間】<br>月～金 11:00～22:00（LO21:30）<br>土日祝 10:00～22:00（LO21:30）<br>【定休日】年末年始<br>【最寄駅】<br>地下鉄 神保町駅 A6 徒歩1分<br>【住所】千代田区 神田神保町2－3<br>【電話】03-3234-2080<br>公式ページ: https://kanda-curry.com/?p=2887]]></description><Point><coordinates>139.757377,35.695631,0</coordinates></Point></Placemark>
<Placemark><name>御茶ノ水 小川軒</name><styleUrl>#c1</styleUrl><description><![CDATA[【メニュー】<br>メインメニュー<br>小川軒 欧風ビーフカレー（ランチのみ） ￥1,600<br>その他メニュー<br>レトルトカレー ¥756～（併設ショップ）<br>レイズンウイッチ 1個￥250（イートイン）／15個¥1,944（併設ショップ）<br>【営業時間】<br>月～土ランチ 11:30〜14:30（LO13:30）<br>月～土カフェ 13:30〜16:30（LO16:00）<br>【定休日】日・祝日、第３土曜、ＧＷ、お盆、年末年始<br>【最寄駅】<br>JR御茶ノ水駅聖橋口より徒歩4分<br>地下鉄新御茶ノ水駅B1出口より徒歩5分<br>地下鉄御茶ノ水駅2番出口より徒歩３分<br>【住所】文京区湯島1-9-3<br>【電話】03-5802-5420<br>【お知らせ】<br>夏季休業のお知らせです。<br>8月8日(土)～8月16日(日)はお休みです。<br>（20260730）<br>小川軒欧風ビーフカレーはランチのみ提供。<br>レトルトカレー購入でスタンプ押します。<br>公式ページ: https://kanda-curry.com/?p=19830]]></description><Point><coordinates>139.765745,35.701875,0</coordinates></Point></Placemark>
<Placemark><name>お茶の水 NARU</name><styleUrl>#c1</styleUrl><description><![CDATA[【メニュー】<br>2種カレー ￥1,350<br>欧風ポークカレー ￥1,000<br>限定ナッツカレー ￥1,200<br>【営業時間】<br>ランチ 11:30～14:00（LO）<br>※カレーは月・火ランチのみ<br>【定休日】ライブ開催時、祝日、年末年始<br>【最寄駅】<br>JR御茶ノ水駅 御茶ノ水橋口 徒歩1分<br>【住所】千代田区神田駿河台2-1B1<br>【電話】03-3291-2321<br>【お知らせ】<br>カレーは月・火のランチのみ。ライブ開催時はカレー提供はお休みさせていただきます。日曜日にカレー提供する場合もあります。決まり次第、WEB等でお知らせします。<br>公式ページ: https://kanda-curry.com/?p=1280]]></description><Point><coordinates>139.763031,35.699547,0</coordinates></Point></Placemark>
<Placemark><name>Cafe&amp;Bar BASE CAMP</name><styleUrl>#c1</styleUrl><description><![CDATA[【メニュー】<br>BASE CAMPカレー ￥1,100<br>ミニカレー ￥660<br>牛すじカレー ￥935<br>鶏モモのローストとゴロゴロ野菜 ￥1,728(2019年9月時点）<br>岡野家のチーズケーキ ￥540(2019年9月時点）<br>【営業時間】<br>ランチ 火水木 11:30 ～14:00（LO13:30）<br>ディナー 月火水木金・祝<br> 17:00 ～23:30（LO23:00）<br>【定休日】土・日、お盆、年末年始<br>【最寄駅】<br>JR水道橋駅 東口 徒歩1分<br>【住所】千代田区三崎町2-22-8 梨本ビル1F<br>【電話】03-5213-4884<br>【お知らせ】<br>貸切パーティーや、その他イベント営業などでの臨時休業などもありますので、臨時休業や営業時間は、HPをご確認ください。<br>https://www.cafe-basecamp.com//<br>公式ページ: https://kanda-curry.com/?p=6807]]></description><Point><coordinates>139.753918,35.702202,0</coordinates></Point></Placemark>
<Placemark><name>カフェ＆パブ マーキュリー</name><styleUrl>#c1</styleUrl><description><![CDATA[【メニュー】<br>ビーフステーキカレー ¥2,550<br>スパイシー野菜カレー ¥1,750<br>ポークカツカレー ¥1,750<br>【営業時間】<br>11:00~22:00(LO21:00)<br>【定休日】年末年始<br>【最寄駅】<br>神保町駅 A8・A9出口 徒歩4分<br>竹橋駅 1b・3a出口 徒歩4分<br>【住所】千代田区一ッ橋2-1-1 如水会館1F<br>【電話】03-3261-1108<br>【お知らせ】<br>平日のビーフステーキカレーの提供は14時以降とさせて頂きます。<br>1日限定 20食とさせていただきます。<br>プラス950円で、スープ・コーヒーが付いた「スープセット」や、ケーキ・コーヒーが付いた「デザートセット」もご用意しております。<br>公式ページ: https://kanda-curry.com/?p=11231]]></description><Point><coordinates>139.758456,35.691986,0</coordinates></Point></Placemark>
<Placemark><name>CAFE &amp; BOOKS PASSAGE bis!</name><styleUrl>#c1</styleUrl><description><![CDATA[【メニュー】<br>メインメニュー名：<br>bis! 出汁スパイシーカレー ￥1,350<br>その他<br>各種クラフトビール ￥700～<br>メルト（上質なバスクチーズケーキ） ￥750<br>【営業時間】<br>12:00-19:00（LO18:30）<br>【定休日】年末年始<br>【最寄駅】<br>地下鉄神保町A7出口徒歩1分<br>【住所】千代田区神田神保町1-15-3 サンサイド神保町ビル3F<br>【電話】XのDMにて<br>公式ページ: https://kanda-curry.com/?p=19812]]></description><Point><coordinates>139.759168,35.695217,0</coordinates></Point></Placemark>
<Placemark><name>カレーの王様 市ヶ谷店</name><styleUrl>#c1</styleUrl><description><![CDATA[【メニュー】<br>手仕込みロースカツカレー ￥1,100<br>復刻王様カレー ￥750<br>ラッシー ￥330<br>【営業時間】<br>平日 11:00～22:00（LO21:30）<br>土日祝 11:00~17:00(LO16:30)<br>【定休日】年末年始<br>【最寄駅】<br>市ヶ谷駅 A1出口 徒歩10秒<br>【住所】千代田区 九段北4-2-15 市ヶ谷プラザ1Ｆ<br>【電話】03-3262-7465<br>公式ページ: https://kanda-curry.com/?p=4858]]></description><Point><coordinates>139.736658,35.691433,0</coordinates></Point></Placemark>
<Placemark><name>カレーの市民 アルバ 秋葉原本店</name><styleUrl>#c1</styleUrl><description><![CDATA[【メニュー】<br>カツカレー ￥1,000<br>ホームランカレー ￥1,350<br>アルバカレー ￥700<br>【営業時間】<br>11:00～21:30（LO21:00）<br>【定休日】年中無休<br>【最寄駅】<br>JR秋葉原駅 電気街口 徒歩5分<br>地下鉄末広町駅 3番出口 徒歩5分<br>【住所】千代田区 外神田3-2-9<br>【電話】03-3254-5686<br>【お知らせ】<br>ルーが無くなり次第終了。<br>公式ページ: https://kanda-curry.com/?p=1869]]></description><Point><coordinates>139.770364,35.700547,0</coordinates></Point></Placemark>
<Placemark><name>喫茶 プペ</name><styleUrl>#c1</styleUrl><description><![CDATA[【メニュー】<br>プぺ特製カレー ￥1,100<br>ドライカレー ￥1,100<br>大盛り ＋￥200<br>【営業時間】<br>11:30～16:00（LO）<br>【定休日】土・日・祝、年末年始<br>【最寄駅】<br>地下鉄竹橋駅 3B 徒歩8分<br>【住所】千代田区神田錦町3-13-11<br>【電話】03-3295-9746<br>【お知らせ】<br>二十歳未満の方はテイクアウトをご利用ください（喫煙可能店のため）。<br>----------------------------<br>ランチ時間帯等、混雑時はテイクアウトのご提供にお時間をいただく場合がございます。<br>公式ページ: https://kanda-curry.com/喫茶-プペ-2/]]></description><Point><coordinates>139.762247,35.692236,0</coordinates></Point></Placemark>
<Placemark><name>キッチンきらく</name><styleUrl>#c1</styleUrl><description><![CDATA[【メニュー】<br>キッチンきらくのカレーライス ￥1,170～ （半カレー￥600）<br>キーマカレーライス ￥1,170～<br>カツカレーライス ￥1,940～<br>【営業時間】<br>月火木金 11:00～15:00（LO14:30）<br>土日祝 11:00～17:00（LO16:30）<br>【定休日】水曜日、年末年始、不定休あり<br>【最寄駅】<br>地下鉄神保町A7出口 徒歩2分<br>【住所】千代田区神田神保町1-5 M2神保町1F<br>【電話】080-7293-0731<br>【お知らせ】<br>キャッシュレス決済となります。<br>お休みはSNS等でお知らせいたします。<br>公式ページ: https://kanda-curry.com/きっちんきらく/]]></description><Point><coordinates>139.759399,35.695571,0</coordinates></Point></Placemark>
<Placemark><name>魚匠屋 神田須田町店</name><styleUrl>#c1</styleUrl><description><![CDATA[【メニュー】<br>メインメニュー名：<br>粗挽き牛肉のスパイスキーマ（ランチ） ￥1,300<br>その他<br>粗挽き牛肉のスパイスキーマ（ディナー） ￥1,539<br>粗挽き牛肉のスパイスキーマ ハーフ（ディナーのみ） ￥989<br>【営業時間】<br>平日ランチ 11:30～14:00（LO13:30）<br>平日ディナー 17:00～23:00（LO22:00）<br>※ディナータイム21:40が最終入店時間です<br>【定休日】土日祝<br>【最寄駅】<br>地下鉄神田駅6番出口徒歩2分<br>地下鉄淡路町駅A1出口徒歩3分<br>JR神田駅北口徒歩5分<br>【住所】千代田区神田須田町1-14<br>【電話】090-9225-1755<br>【お知らせ】<br>ディナータイムは入店時に必ず「カレースタンプラリー」とお伝えください。<br>金曜ディナーは提供に時間がかかります。<br>※ディナータイム21:40が最終入店時間です。<br>ラストオーダーは22:00ですが、遅い時間帯に入店されるお客様が多く、お飲物や料理の提供まで時間がかかってしまうため、最終入店時間を21:40としております。<br>何卒ご理解くださいますようお願いいたします。<br>（20260623）<br>公式ページ: https://kanda-curry.com/?p=19802]]></description><Point><coordinates>139.77002,35.695443,0</coordinates></Point></Placemark>
<Placemark><name>黒毛和牛カレー専門店 烏山カレー</name><styleUrl>#c1</styleUrl><description><![CDATA[【メニュー】<br>メインメニュー<br>黒毛和牛スネ肉塊ビーフカレー 黒毛和牛100g ￥1,400<br>その他<br>黒毛和牛スジ煮込みカレー ￥1,200<br>黒毛和牛スネ肉塊ビーフカレー 黒毛和牛150g ￥1,800<br>【営業時間】<br>月～土ランチ 11:30〜15:00（LO14:30）<br>月～金ディナー 18:00〜20:30（LO20:00）<br>【定休日】土ディナー、日・祝<br>【最寄駅】<br>地下鉄馬喰横山駅A1出口 徒歩2分<br>JR馬喰町駅3番出口 徒歩2分<br>地下鉄東日本橋駅B4出口 徒歩3分<br>【住所】中央区日本橋横山町8-5 日本橋88ビル1F<br>【電話】080-4591-9826<br>公式ページ: https://kanda-curry.com/?p=19816]]></description><Point><coordinates>139.783988,35.693143,0</coordinates></Point></Placemark>
<Placemark><name>Cozy</name><styleUrl>#c1</styleUrl><description><![CDATA[【メニュー】<br>キーマカレー ￥1,400<br>チキンカレー ￥1,300<br>ロースカツカレー ￥1,300<br>【営業時間】<br>平日ランチ 10:30～17:00<br>平日ディナー 17:00～23:00（LO22:30）<br>【定休日】土・日・祝、年末年始<br>【最寄駅】<br>JR神田駅西口徒歩4分<br>銀座線神田駅徒歩6分<br>都営新宿線小川町駅徒歩8分<br>【住所】千代田区内神田2-12-3<br>【電話】03-5256-4566<br>【お知らせ】<br>二十歳未満の方はテイクアウトをご利用ください（喫煙可能店のため）。<br>公式ページ: https://kanda-curry.com/cozy/]]></description><Point><coordinates>139.767805,35.691374,0</coordinates></Point></Placemark>
<Placemark><name>Dining九段</name><styleUrl>#c1</styleUrl><description><![CDATA[【メニュー】<br>カツカレー ￥690／大盛り￥790<br>野菜仕立てのキーマカレー ￥630／大盛り￥730<br>満菜カレー ￥540／大盛り￥640<br>【営業時間】<br>ランチ 11:00～14:30（LO14:00）<br>ディナー 17:00～20:00（LO19:30）<br>【定休日】土日祝、年末年始<br>【最寄駅】<br>地下鉄九段下駅5番出口 徒歩5分<br>【住所】千代田区九段南1-2-1 千代田区役所10Ｆ食堂フロア<br>【電話】080-6240-6151<br>【お知らせ】<br>券売機利用のセルフ<br>サービス営業です。<br>公式ページ: https://kanda-curry.com/dining九段/]]></description><Point><coordinates>139.753362,35.693836,0</coordinates></Point></Placemark>
<Placemark><name>とんかつ檍のカレー屋 いっぺこっぺ 秋葉原店</name><styleUrl>#c1</styleUrl><description><![CDATA[【メニュー】<br>上ロースカツカレー ￥1,900<br>ロースカツカレー ￥1,400<br>特上ロースカツカレー ￥2,500<br>【営業時間】<br>11:00～20:00（LO）<br>【定休日】年中無休<br>【最寄駅】<br>地下鉄末広町駅 3番出口 徒歩3分<br>JR秋葉原駅 電気街口 徒歩8分<br>【住所】千代田区外神田3-5-3<br>【電話】03-6384-0015<br>公式ページ: https://kanda-curry.com/?p=13372]]></description><Point><coordinates>139.76952,35.701905,0</coordinates></Point></Placemark>
<Placemark><name>とんかつ檍のカレー屋 いっぺこっぺ 神田小川町店</name><styleUrl>#c1</styleUrl><description><![CDATA[【メニュー】<br>上ロースかつカレー ¥1,800<br>上ひれかつカレー ¥1,800<br>特上ロースかつカレー ¥2,300<br>【営業時間】<br>月～土ランチ 11:00~15:00(LO) <br>月～金ディナー 15:00~20:00(LO)<br>祝 11:00~20:00(LO)<br>【定休日】日曜日、年末年始<br>【最寄駅】<br>小川町駅 B6出口 徒歩1分<br>新御茶ノ水駅 B6出口 徒歩1分<br>【住所】千代田区神田美土代町9-7 千代田21ビルディング 1F<br>【電話】03-5577-7444<br>公式ページ: https://kanda-curry.com/?p=16636]]></description><Point><coordinates>139.765467,35.693789,0</coordinates></Point></Placemark>
<Placemark><name>日本式カレー 弐番亭</name><styleUrl>#c1</styleUrl><description><![CDATA[【メニュー】<br>タカギさん ￥2,195<br>手仕込みカツ＆揚げ卵 ￥1,199<br>目玉焼き＆赤ウィンナー ￥999<br>【営業時間】<br>平日 11:00～16:00（LO）<br> 17:00～21:00（LO）<br>土日祝 11:00～20:30（LO）<br>【定休日】お盆、年末年始<br>【最寄駅】<br>神保町駅 A2出口 徒歩2分<br>九段下駅 5番出口 徒歩3分<br>JR水道橋駅 西口 徒歩11分<br>【住所】千代田区神田神保町3-12-6 山瀬ビル1F<br>【電話】080-7600-9696<br>公式ページ: https://kanda-curry.com/カレーの弐番亭-神保町本店/]]></description><Point><coordinates>139.754562,35.696333,0</coordinates></Point></Placemark>
<Placemark><name>ハンバーグレストラン 牛舎本店</name><styleUrl>#c1</styleUrl><description><![CDATA[【メニュー】<br>ハンバーグカレー ¥1,500（ランチ￥1,450）<br>牛100%手ごねハンバーグ180g ￥1,250（ランチ）<br>牛100%手ごねハンバーグ1000g ￥4,800<br>【営業時間】<br>ランチ 11:30〜15:30（LO15:00）<br>ディナー 17:30〜21:30（LO21:00）<br>ハンバーグなくなり次第終了<br>【定休日】月曜と火曜の夜、お盆、年末年始<br>【最寄駅】<br>地下鉄末広町駅4番出口徒歩2分<br>JR秋葉原駅徒歩8分<br>【住所】千代田区外神田6−5−9<br>【電話】03-6803-0529<br>【お知らせ】<br>ハンバーグがなくなり次第、終了です。<br>公式ページ: https://kanda-curry.com/ハンバーグレストラン牛舎/]]></description><Point><coordinates>139.770153,35.703247,0</coordinates></Point></Placemark>
<Placemark><name>冒険香る Roman Kitchen</name><styleUrl>#c1</styleUrl><description><![CDATA[【メニュー】<br>大冒険カレー ￥1,750<br>悪魔の太陽トマトチーズカレー ￥1,350<br>これぞ肉食ワイルドカレー ￥1,400（ランチのみ）<br>【営業時間】<br>ランチ 月～土 11:00～15:00（LO14:30）<br>ディナー月～木 18:00～22:00（LO21:30）<br>【定休日】日、年末年始<br>【最寄駅】<br>地下鉄秋葉原駅A3出口徒歩7分<br>地下鉄末広町7番出口徒歩6分<br>【住所】台東区秋葉原1ｰ5ヨリモトビル１F<br>【電話】instagramのDMにて<br>【お知らせ】<br>カレーが無くなり次第終了です<br>ディナー営業のみinstagramのDMから予約可能です（ランチは予約不可）<br>公式ページ: https://kanda-curry.com/?p=18657]]></description><Point><coordinates>139.775146,35.702034,0</coordinates></Point></Placemark>
<Placemark><name>MAJI CURRY 神田神保町本店</name><styleUrl>#c1</styleUrl><description><![CDATA[【メニュー】<br>グランプリカレー（月～土のみ） ￥1,460<br>特製ビーフカレー（月～土のみ） ￥1,060<br>チキンスパイスカレー（日曜のみ） ￥1,500<br>↓<br>毎週日曜日はスパイスカレーのみの営業となります。<br>【営業時間】<br>11:00～21:00（LO20:30）<br>【定休日】年末年始<br>【最寄駅】<br>地下鉄 神保町駅A5徒歩5分<br>JR御茶ノ水駅御茶ノ水橋口徒歩5分<br>【住所】千代田区神田小川町3-10-7<br>【電話】03-5282-4814<br>【お知らせ】<br>毎週日曜日はスパイスカレーのみの営業となります。<br>公式ページ: https://kanda-curry.com/maji-curry-神田神保町店/]]></description><Point><coordinates>139.761375,35.69621,0</coordinates></Point></Placemark>
<Placemark><name>メキシカン酒場 皇亭ペンギン</name><styleUrl>#c1</styleUrl><description><![CDATA[【メニュー】<br>皇亭キーマカレー ￥1,150<br>欧風カレー ￥1,050<br>やみつきタコライス 1,000<br>【営業時間】<br>月～金ランチ 11:30～15:00（LO14:45）<br>月～土ディナー 18:00～24:00（LO23:00）<br>【定休日】日祝、第2土曜、お盆、年末年始<br>【最寄駅】<br>小川町駅淡路町駅B7出口徒歩2分<br>【住所】千代田区神田錦町1-14-7 紅雪神田錦町ビル1階A室<br>【電話】03-6281-7177<br>【お知らせ】<br>スタンプ対応はランチタイムのみとさせていただきます。<br>二十歳未満の方はテイクアウトをご利用ください（喫煙可能店のため）。<br>公式ページ: https://kanda-curry.com/皇亭ペンギン/<br>※位置は住所からの推定（概算）]]></description><Point><coordinates>139.764252,35.693806,0</coordinates></Point></Placemark>
<Placemark><name>やっぱりステーキ 神田店</name><styleUrl>#c1</styleUrl><description><![CDATA[【メニュー】<br>メインメニュー名：<br>パリパリチキンの牛すじカレー（スープ・サラダ付） ￥1,300<br>その他メニュー<br>牛すじカレー（スープ・サラダ付） ￥800<br>肉キングGPカレー ￥1,800<br>【営業時間】<br>11:00～22:00（LO21:30）<br>【定休日】年末年始<br>【最寄駅】<br>JR神田駅東口 徒歩3分<br>JR神田駅南口 徒歩4分<br>【住所】千代田区鍛冶町2-3-14フェリスビルB1F<br>【電話】03-6285-2919<br>【お知らせ】<br>トッピングカレー（290円・単品注文不可）でもスタンプ押します。<br>（20260812）<br>公式ページ: https://kanda-curry.com/?p=15001]]></description><Point><coordinates>139.772493,35.691195,0</coordinates></Point></Placemark>
<Placemark><name>RAKUSPA1010神田</name><styleUrl>#c1</styleUrl><description><![CDATA[【メニュー】<br>近江牛サウナカレー ￥1,357<br>プレミアムロースかつカレー ￥1,518<br>リポスパ ￥430<br>【営業時間】<br>11:30～24:00（LO23:00）<br>【定休日】設備メンテナンスの為、年2回<br>【最寄駅】<br>JR御茶ノ水駅 聖橋口 徒歩5分<br>地下鉄新御茶ノ水駅B2出口 徒歩3分<br>地下鉄淡路町駅 A5出口 徒歩5分<br>【住所】東京都千代田区神田淡路町2-9-9<br>【電話】03-5207-2683<br>【お知らせ】<br>退館時ご精算前に、フロントでスタンプシートか<br>スマホ版の画面をご提示ください。<br>（20260824）<br>公式ページ: https://kanda-curry.com/rakuspa1010神田/<br>※位置は住所からの推定（概算）]]></description><Point><coordinates>139.768005,35.698174,0</coordinates></Point></Placemark>
<Placemark><name>レストラン フォッセ</name><styleUrl>#c1</styleUrl><description><![CDATA[【メニュー】<br>メインメニュー<br>季節の野菜カレー（ランチのみ） ￥1,540<br>その他<br>オムライス ランチ￥1,320／ディナー￥1,980<br>ハンバーグステーキ ランチ￥1,760／ディナー￥1,980（単品）<br>【営業時間】<br>11:00～21:00（LO20:20）<br>ランチタイム 11:00～14:30（LO）<br>【定休日】年末年始<br>【最寄駅】<br>JR市ヶ谷駅 徒歩2分<br>地下鉄市ヶ谷駅1/A1/A4出口 徒歩2分<br>【住所】千代田区九段北4-2-25 アルカディア市ヶ谷 私学会館 2F<br>【電話】03-6685-0542<br>【お知らせ】<br>カレーはランチメニューです。<br>ランチタイムのみの提供となります。<br>公式ページ: https://kanda-curry.com/?p=19814]]></description><Point><coordinates>139.737619,35.692061,0</coordinates></Point></Placemark>
<Placemark><name>Restaurant Mari</name><styleUrl>#c1</styleUrl><description><![CDATA[【メニュー】<br>季節の野菜とポークカレースペシャル ￥ 1,380<br>チキンカレー ¥1,250<br>オムライス ¥1,350<br>【営業時間】<br>月～金 11:00 ～ 16:30（LO16:00） <br>土曜日 11:30 ～ 15:30（LO15:00）<br>【定休日】日・祝、年末年始<br>【最寄駅】<br>地下鉄 淡路町駅A5出口 徒歩3分<br>地下鉄 新御茶ノ水駅A3出口 徒歩3分<br>【住所】千代田区神田淡路町2-21-17 DEAR淡路町 1F<br>【電話】03-6271-7232<br>【お知らせ】<br>カレーはなくなり次第終了です。<br>Twitter(@mari_shacho) <br>で売り切れ情報更新してます!<br>公式ページ: https://kanda-curry.com/restaurant-mari/]]></description><Point><coordinates>139.766711,35.696612,0</coordinates></Point></Placemark>
</Folder>
<Folder><name>北インド・パキスタン</name>
<Placemark><name>アロマズオブインディア</name><styleUrl>#c2</styleUrl><description><![CDATA[【メニュー】<br>チキンバターマサラ ￥1,500<br>チキンミルチカレー ￥1,450<br>チーズナン ￥750<br>ランチAセット ￥900〜<br>【営業時間】<br>ランチ 11：00〜15：00（LO14：30）<br>ディナー 17：00〜23：00（LO22：30）<br>【定休日】12/31ディナー、1/1<br>【最寄駅】<br>JR秋葉原駅 6分<br>地下鉄神田駅 4分<br>地下鉄淡路町駅 3分<br>地下鉄小川町駅 4分<br>【住所】〒101-0041 <br>千代田区神田須田町1-21-4 神田NKビル<br>【電話】03-3255-6126<br>公式ページ: https://kanda-curry.com/?p=6901]]></description><Point><coordinates>139.76937,35.69681,0</coordinates></Point></Placemark>
<Placemark><name>インド・パキスタン料理シディーク 神保町店</name><styleUrl>#c2</styleUrl><description><![CDATA[【メニュー】<br>ラム ニハリ（ナンorライス付） ￥ 1,600<br>バターチキンカレー（ナンorライス付） ￥1,200<br>マトンカレー（ナンorライス付）￥1,200<br>【営業時間】<br>11:00～21:00（LO20:30）<br>【定休日】年末年始<br>【最寄駅】<br>都営三田線神保町駅 Ａ1出口 徒歩1分<br>【住所】千代田区神田神保町2-7 1Ｆ～2Ｆ<br>【電話】03-3511-5758<br>公式ページ: https://kanda-curry.com/?p=707]]></description><Point><coordinates>139.756,35.6957,0</coordinates></Point></Placemark>
<Placemark><name>インド・パキスタン料理 スルターン 飯田橋本店</name><styleUrl>#c2</styleUrl><description><![CDATA[【メニュー】<br>2種類カレーセット（ランチ） ￥1,200<br>ランチ日替わりカレーセット ￥1,000<br>ディナー日替わりカレーセット ￥1,260～<br>【営業時間】<br>ランチ 11:00～17:00(LO)<br>ディナー 17:00～23:00(LO 22:30)<br>【定休日】年末年始<br>【最寄駅】<br>JR 飯田橋駅 東口 徒歩3分<br>【住所】千代田区飯田橋2-9-7 東西館ビル１Ｆ<br>【電話】03-3263-7631<br>【お知らせ】<br>お客様がいらっしゃらない場合は、21:30頃に閉店する場合があります（特に日曜日など）。<br>何卒ご了承ください。<br>（20250718）<br>公式ページ: https://kanda-curry.com/?p=3058]]></description><Point><coordinates>139.748671,35.700194,0</coordinates></Point></Placemark>
<Placemark><name>インドレストラン マンダラ</name><styleUrl>#c2</styleUrl><description><![CDATA[【メニュー】<br>チキンバターマサラ ￥1,300（ナン別）<br>タンドールチキン(3ピース) ￥1,740<br>インディアンサラダ ￥550<br>【営業時間】<br>平日ランチ 11:00～15:00（LO14:45）<br>平日ディナー 17:00～23:00（LO22:00）<br>土日祝 11:00～22:00（LO21:00）<br>【定休日】年末年始<br>【住所】千代田区神田神保町2-17 集英社共同ビル Ｂ1Ｆ<br>【電話】03-3265-0498<br>公式ページ: https://kanda-curry.com/?p=1666]]></description><Point><coordinates>139.757664,35.6951,0</coordinates></Point></Placemark>
<Placemark><name>ガンディーマハル</name><styleUrl>#c2</styleUrl><description><![CDATA[【メニュー】<br>野菜カリーランチセット ￥990<br>ディナー2種カリーセット ￥1,078<br>パーティープラン1名様 ￥2,000～<br>【営業時間】<br>ランチ 11:00～15:00（LO 14:50）<br>ディナー 17:00～22:00（LO 21:50）<br>【定休日】年末年始<br>【最寄駅】<br>地下鉄千代田線「新御茶ノ水駅」B3出口 徒歩30秒<br>都営新宿線「小川町駅」B4出口<br>【住所】〒101-0052千代田区神田小川町1-10保坂ビル2F<br>【電話】03-5296-1238<br>公式ページ: https://kanda-curry.com/?p=595]]></description><Point><coordinates>139.765307,35.695468,0</coordinates></Point></Placemark>
<Placemark><name>J.Tipple Bar</name><styleUrl>#c2</styleUrl><description><![CDATA[【メニュー】<br>J.Tippleカレー ￥1,210<br>サラダ各種 ￥825～<br>キリン一番搾り生ビール ￥770<br>【営業時間】<br>月～金 17:00～翌2:00<br>【定休日】日・祝、年末年始<br>【最寄駅】<br>地下鉄神保町駅 A5出口 徒歩6分<br> JR水道橋駅 東口<br>【住所】千代田区神田神保町1-64 野間ビル中2階<br>【電話】03-3294-8118<br>【お知らせ】<br>通常チャージ800円のところ、スタンプラリーのお客様はチャージ無料！！<br>公式ページ: https://kanda-curry.com/?p=694]]></description><Point><coordinates>139.758258,35.698814,0</coordinates></Point></Placemark>
<Placemark><name>ジョニーのビリヤニ神田店</name><styleUrl>#c2</styleUrl><description><![CDATA[【メニュー】<br>本日のビリヤニ ￥1,500<br>本日のビリヤニ 大盛り プラス￥400<br>ラッシー ￥400<br>【営業時間】<br>11:00～15:00（LO14:30）<br>【定休日】不定休<br>【最寄駅】<br>JR神田駅西口 徒歩2分<br>【住所】千代田区内神田3-8-1<br>【電話】instagramのDMにて<br>【お知らせ】<br>ビリヤニ売り切れ次第終了です。<br>不定休のため、instagram、X をご確認下さい。<br>公式ページ: https://kanda-curry.com/ジョニーのビリヤニ神田店/]]></description><Point><coordinates>139.769913,35.690811,0</coordinates></Point></Placemark>
<Placemark><name>すぱいし家</name><styleUrl>#c2</styleUrl><description><![CDATA[【メニュー】<br>バナナリーフで蒸し上げたチキンビリヤニ<br>ランチ¥1,250／ディナー¥1,628<br>甘くない大人のバターチキン ¥1,188<br>パラックパニールのソテー ¥748<br>【営業時間】<br>平日ランチ 11:30 ~ 14:00(LO) <br>平日ディナー 17:30 ~ 22:00(LO) <br>土曜ランチ 12:00～15:00(LO14:30)<br>土曜ディナー 17:30～21:00(LO)<br>【定休日】日・祝、年末年始<br>【最寄駅】<br>東西線飯田橋駅 A5出口 徒歩4分 <br>地下鉄飯田橋 駅 A4出口 徒歩5分 <br>JR飯田橋駅 西口 徒歩5分<br>【住所】千代田区飯田橋4-2-5-102<br>【電話】03-6261-7131<br>【お知らせ】<br>ディナータイムは、ワンドリンク制となります。<br>（20260716）<br>お昼の12時30分頃までは混み合っています。<br>公式ページ: https://kanda-curry.com/すぱいし家/]]></description><Point><coordinates>139.74742,35.699819,0</coordinates></Point></Placemark>
<Placemark><name>スパイスカレー アルクロード</name><styleUrl>#c2</styleUrl><description><![CDATA[【メニュー】<br>スパイスチキンカレー ￥1,200<br>イカとチキンのキーマカレー 1,200<br>ビリヤニ ￥1,200<br>【営業時間】<br>平日ランチ 11:00～15:00（LO15:00）<br>平日ディナー 17:30～22:30（LO22:00）<br>土日祝ランチ 11:00〜15:00（LO15:00）<br>土日祝ディナー 17:30〜20:00（LO20:00）<br>【定休日】GW、お盆、年末年始<br>【最寄駅】<br>JR飯田橋駅 東口徒歩1分<br>地下鉄飯田橋駅 A4出口 目の前<br>【住所】千代田区飯田橋4-8-11<br>【電話】03-6272-6322<br>公式ページ: https://kanda-curry.com/アルクロード-飯田橋店/]]></description><Point><coordinates>139.745874,35.701486,0</coordinates></Point></Placemark>
<Placemark><name>スルターン カレー&amp;ケバブ</name><styleUrl>#c2</styleUrl><description><![CDATA[【メニュー】<br>ニハリセット(ナンorライス、サラダ・ドリンク付) ¥1,600<br>日替わりカレーセット(ナンorライス) ランチ¥1,000/ディナー¥1,260<br>ラムビリヤニ ¥1,500<br>【営業時間】<br>ランチ 11:00 ~ 17:00(LO) <br>ディナー 17:00 ~ 23:00(LO22:30)<br>【定休日】無休<br>【最寄駅】<br>東西線九段下駅5番出口 徒歩2分<br>九段下駅5番出口 徒歩2分<br>【住所】千代田区九段北1-3-6 セーキビル1F<br>【電話】03-6256-9605<br>公式ページ: https://kanda-curry.com/?p=16751]]></description><Point><coordinates>139.751341,35.696218,0</coordinates></Point></Placemark>
<Placemark><name>タンドール料理 RB&#x27;s ひつじや</name><styleUrl>#c2</styleUrl><description><![CDATA[【メニュー】<br>ランチCセット(チュニジア餃子やシークカバブ付セット) ¥1,499<br>タンドリービリヤニ ¥2,000<br>1カレーセット(ドリンク付) ¥1000<br>【営業時間】<br>ランチ 11:00~15:00(LO14:30) <br>ディナー 17:00~22:30(LO22:00)<br>【定休日】不定休<br>【最寄駅】<br>小川町駅 B7出口 徒歩5分<br>神保町駅 A9出口 徒歩5分<br>【住所】千代田区神田錦町3-6-7 錦町スクエアビル1F<br>【電話】03-6811-0888<br>公式ページ: https://kanda-curry.com/?p=16757]]></description><Point><coordinates>139.762513,35.693752,0</coordinates></Point></Placemark>
</Folder>
<Folder><name>東インド・ネパール</name>
<Placemark><name>アジアンキッチン</name><styleUrl>#c3</styleUrl><description><![CDATA[【メニュー】<br>メイン<br>スパイス香る薬膳チキンカレー ￥1,300<br>その他<br>マトンハンバーグカレー ￥1,100<br>カツカレー定食 ￥1,050<br>【営業時間】<br>11:00〜22:30（LO）<br>【定休日】不定休<br>【最寄駅】<br>地下鉄神保町駅A2出口 徒歩3分<br>【住所】千代田区神田神保町2-36 片桐ビル 1F<br>【電話】03-4330-1034<br>【お知らせ】<br>日曜日は、お客様がいらっしゃらない場合、<br>15:00（LO15:00）で営業終了いたします。<br>日曜日の15:00以降にご利用されたい場合は、<br>14:30までにお電話をお願いいたします。<br>どうぞよろしくお願いいたします。<br>（20260731）<br>公式ページ: https://kanda-curry.com/?p=16628]]></description><Point><coordinates>139.754753,35.697317,0</coordinates></Point></Placemark>
<Placemark><name>インド・アジアン料理 プルナ （PURNA）</name><styleUrl>#c3</styleUrl><description><![CDATA[【メニュー】<br>小川町ターリー ¥1,290（ランチ）<br>日替わりカレー ¥990（ランチ）<br>バターチキンカレー ¥1,090（ランチ）<br>【営業時間】<br>ランチ 11:00～16:00（LO）<br>ディナー 16:00～23:00（LO22:30)<br>【定休日】年末年始<br>【最寄駅】<br>地下鉄小川町駅 B4出口 徒歩10秒<br>地下鉄新御茶ノ水駅 B3出口 徒歩3分<br>【住所】千代田区 神田小川町1-8-14 神田新宮嶋ビル 2F<br>【電話】03-3258-5055<br>公式ページ: https://kanda-curry.com/?p=2139]]></description><Point><coordinates>139.765577,35.6949,0</coordinates></Point></Placemark>
<Placemark><name>インド料理 ザ・タンドール</name><styleUrl>#c3</styleUrl><description><![CDATA[【メニュー】<br>タンドールスペシャルタリ ￥1,690<br>ランチカレーセット ￥980～<br>ランチお持ち帰り ￥600～<br>【営業時間】<br>ランチ（平日） : 11:00～15:00（LO）<br>ディナー（月～金）: 17:00～23:00（LO）<br>※土日祝はランチのみの営業になります<br>【定休日】年末年始<br>【最寄駅】<br>大手町駅 C2b 徒歩4分<br>小川町駅 A6 徒歩5分<br>JR神田駅 西口 徒歩5分<br>【住所】千代田区 内神田1-5-11 セントラル大手町ビル1階<br>【電話】03-5280-1630<br>公式ページ: https://kanda-curry.com/?p=2911]]></description><Point><coordinates>139.766144,35.690681,0</coordinates></Point></Placemark>
<Placemark><name>Gravy</name><styleUrl>#c3</styleUrl><description><![CDATA[【メニュー】<br>ベジタブルダルバート ランチ¥1,500／ディナー￥1,900<br>ラムビリヤニ ¥1200～<br>2色カレーセット ¥1,000（ランチのみ）<br>【営業時間】<br>ランチ 11:00～15:00（LO14:30）<br>ディナー 17:00～22:00（LO21:30）<br>【定休日】年末年始<br>【最寄駅】<br>神保町駅A9出口より徒歩5分<br>小川町駅・淡路町駅B7出口より徒歩4分<br>【住所】千代田区神田小川町3-11-2<br>【電話】03-5244-5128<br>公式ページ: https://kanda-curry.com/gravy/]]></description><Point><coordinates>139.762684,35.694036,0</coordinates></Point></Placemark>
<Placemark><name>SAINO</name><styleUrl>#c3</styleUrl><description><![CDATA[【メニュー】<br>ランチスペシャルセット ￥1,100<br>ランチカレーセット ￥900～￥1,050<br>ターリーセット(ディナーのみ） ￥1,750<br>【営業時間】<br>ランチ（平日） 11：00～17：00（LO）<br>ランチ（土日祝）11：00～15：00（LO）<br>ディナー 17：00～23：00（LO 22：00）<br>【定休日】年末年始<br>【最寄駅】<br>JR水道橋駅東口出口徒歩5分<br>地下鉄神保町駅Ａ5出口徒歩6分<br>【住所】千代田区神田猿楽町2-6-5<br>【電話】03-3233-0855<br>公式ページ: https://kanda-curry.com/saino/]]></description><Point><coordinates>139.757691,35.699719,0</coordinates></Point></Placemark>
<Placemark><name>SUN &amp; MOON Asian Dining &amp; Bar</name><styleUrl>#c3</styleUrl><description><![CDATA[【メニュー】<br>バターチキンカレーAセット（ナンorライス） ￥1,200（ランチ￥1,000）<br>バターチキンカレー(単品)ハーフサイズ ¥700<br>モモ ¥700<br>【営業時間】<br>24時間営業<br>ランチ 11:00～LO15:00<br>【定休日】無休<br>【最寄駅】<br>岩本町駅 4番出口 徒歩6分<br>小伝馬町駅 2番出口 徒歩6分<br>【住所】千代田区岩本町2-15-17 桃井ビル1F<br>【電話】03-5809-1145<br>公式ページ: https://kanda-curry.com/?p=16642]]></description><Point><coordinates>139.778266,35.694104,0</coordinates></Point></Placemark>
<Placemark><name>ダルバール</name><styleUrl>#c3</styleUrl><description><![CDATA[【メニュー】<br>バターチキンカレー ¥990<br>マトンサグ ¥1,090<br>シーフードカレー ¥1,150<br>【営業時間】<br>ランチ 11:00~17:00(LO16:30) <br>ディナー 17:00~23:00(LO22:30)<br>【定休日】無休<br>【最寄駅】<br>市ケ谷駅 A3出口 徒歩2分<br>【住所】千代田区九段南4-7-22 B1F<br>【電話】03-3221-9996<br>公式ページ: https://kanda-curry.com/ダルバール/]]></description><Point><coordinates>139.739102,35.691344,0</coordinates></Point></Placemark>
<Placemark><name>ベンガル料理 TORKARI 神保町本店</name><styleUrl>#c3</styleUrl><description><![CDATA[【メニュー】<br>ドス・ミシャリ・プラス（ディナーのみ） ￥2,450<br>ドス・ミシャリ・プラス（ランチのみ） ￥1,750<br>ボルタ・バジセット（ランチのみ）￥1,500<br>【営業時間】<br>ランチ 11:00～16:30（LO16:00）<br>ディナー 16:30～22:30（LO22:00）<br>【定休日】年末年始<br>【最寄駅】<br>地下鉄 神保町駅 A2出口 徒歩2分<br>地下鉄 九段下駅 5番出口 徒歩5分<br>【住所】千代田区神田神保町2-34 フェニックス神保町ビル1F<br>【電話】03-6721-5514<br>【お知らせ】<br>ボルタは激辛です。<br>公式ページ: https://kanda-curry.com/トルカリ/]]></description><Point><coordinates>139.755214,35.697365,0</coordinates></Point></Placemark>
</Folder>
<Folder><name>南インド・スリランカ</name>
<Placemark><name>スパイシービストロ タップロボーン 神保町店</name><styleUrl>#c4</styleUrl><description><![CDATA[【メニュー】<br>タップロボーン ヴィーガン赤米プレート ¥1,480<br>（スタンプラリー期間中のみ。ディナータイム同価格）<br>ランプライスチキンカレーセット ￥2,200（ディナーのみ）<br>ラトゥキャクルワンプレート ￥1,480（ライスのみ）<br>【営業時間】<br>ランチ 11:30～15:30（LO15:00）<br>ディナー 17:30～22:30（LO22:00）<br>【定休日】大変申し訳ありませんが、人手不足のため、<br> 日曜日はお休みすることがあります。<br> 日曜日当日に、お電話でご確認いただけますと幸いです。<br> どうぞよろしくお願いいたします。<br> （20251021）<br>年末年始<br>【最寄駅】<br>地下鉄神保町駅 A2出口徒歩2分<br>地下鉄九段下駅 5番出口徒歩5分<br>【住所】千代田区神田神保町2-6-3 早川青砥ビル1F<br>【電話】03-6878-0196<br>【お知らせ】<br>【日曜日の営業につきまして】<br>大変申し訳ありませんが、人手不足のため、<br>日曜日はお休みすることがあります。<br>日曜日当日に、お電話でご確認いただけますと幸いです。<br>どうぞよろしくお願いいたします。<br>（20251021）<br>公式ページ: https://kanda-curry.com/?p=11092]]></description><Point><coordinates>139.755651,35.696554,0</coordinates></Point></Placemark>
<Placemark><name>Spice&amp;Herb memento mori</name><styleUrl>#c4</styleUrl><description><![CDATA[【メニュー】<br>3種盛りプレート ￥1,800<br>2種盛りプレート ¥1,400<br>レンズ豆カレー(1種盛り) ¥1,100<br>【営業時間】<br>11:00~14:30(LO14:00)<br>【定休日】不定休、年末年始<br>【最寄駅】<br>神保町駅 A4出口 徒歩1分<br>【住所】千代田区神田神保町2-14-2F 各国ワインと蒸留酒酒場 ワイン焼酎208内<br>【電話】03-6272-5310<br>【お知らせ】<br>7/25より営業再開いたします。<br>（20260702）<br>---------------------------<br>現金・QR系決済可。グループ様まとめてお会計お願いします。<br>公式ページ: https://kanda-curry.com/?p=16745]]></description><Point><coordinates>139.757173,35.697017,0</coordinates></Point></Placemark>
<Placemark><name>スパイスバル BODHISENA（ボーディセナ）</name><styleUrl>#c4</styleUrl><description><![CDATA[【メニュー】<br>メインメニュー名：<br>3種のミニカレーとビリヤニ（ランチのみ） ￥1,250<br>その他メニュー<br>カレー1種セット（ランチのみ） ￥1,000<br>ボーディセナ ミールス（ディナーのみ） ￥2,300<br>【営業時間】<br>月～土ランチ 11:00～15:00（LO14:30）<br>月～金ディナー 17:30～22:00（LO21:00）<br>【定休日】日祝、お盆、年末年始<br>【最寄駅】<br>JR神田駅西口 徒歩7分<br>地下鉄小川町駅A6出口 徒歩7分<br>【住所】千代田区内神田1-11-2 楠本第19ビル1F<br>【電話】03-5283-5162<br>【お知らせ】<br>【夏季休業のお知らせ】<br>8月17日（月）と8月18日（火）は夏季休業となります。<br>（20260813）<br>ビリヤニはなくなり次第、販売終了です。<br>公式ページ: https://kanda-curry.com/?p=19808]]></description><Point><coordinates>139.765968,35.69083,0</coordinates></Point></Placemark>
<Placemark><name>Spice Box</name><styleUrl>#c4</styleUrl><description><![CDATA[【メニュー】<br>2種カレーライスセット ￥1,500〜（ランチ）<br>ビリヤニ ￥1,958～<br>カレー専用マヨネーズ ￥400（店頭にて販売中）<br>※カレー専用マヨネーズをご購入でもスタンプ押します（土曜日のみ）<br>（20260730）<br>【営業時間】<br>月～土ランチ 11:00～14:00（13:45）<br>月～金ディナー 18:00～21:30（LO21:00）<br>土ディナー 18:00～ 20:30（LO20:00）<br>※スタンプ対応は土曜のみ<br>※スマホ版も土曜のみ<br>【定休日】日・祝、年末年始<br>【最寄駅】<br>小川町駅B6出口 より徒歩3分<br>【住所】千代田区内神田1-15-12第二斉木ビル1F<br>【電話】03-5577-3909<br>【お知らせ】<br>カレー専用マヨネーズをご購入でもスタンプ押します（土曜日のみ）<br>（20260730）<br>スタンプ対応は土曜日のみとさせていただきます。<br>スマホ版も土曜日のみとなります。<br>どうぞよろしくお願いいたします。<br>公式ページ: https://kanda-curry.com/スパイス-ボックス-（spice-box）/]]></description><Point><coordinates>139.765894,35.692233,0</coordinates></Point></Placemark>
<Placemark><name>TinTin SriLankan Curry</name><styleUrl>#c4</styleUrl><description><![CDATA[【メニュー】<br>メインメニュー名：<br>ティンティンカレープレート ￥1,400～<br>＋ イワシのスパイスフライ ￥400～<br>その他メニュー<br>オプション 本日のデビル炒め ￥300～<br>オプション スリランカコロッケ カトレット ￥200<br>【営業時間】<br>火～土ランチ 11:30～15:00（LO14:30)<br>火～土ディナー 17:30～22:00（LO21:30）<br>日ランチ 11:30～17:00（LO16:30)<br>【定休日】月曜日、年末年始<br>----------------<br> 7月より、お休みが増えます。<br>月曜日の定休日以外は、SNS等で情報発信いたします。等で情報発信いたします。<br> どうぞよろしくお願いいたします。<br> （20260705）<br>【最寄駅】<br>地下鉄小川町駅B7出口徒歩４分<br>地下鉄神保町駅A5出口徒歩5分<br>JR御茶ノ水駅聖橋口徒歩10分<br>【住所】千代田区神田小川町3-11-2 インペリアルお茶の水B106<br>【電話】03-5921-0450<br>【お知らせ】<br>ディナータイムはワンドリンク制となります。<br>----------------<br>7月より、お休みが増えます。<br>月曜日の定休日以外は、<br>SNS等で情報発信いたします。<br>どうぞよろしくお願いいたします。<br>（20260705）<br>公式ページ: https://kanda-curry.com/?p=19806]]></description><Point><coordinates>139.762356,35.694143,0</coordinates></Point></Placemark>
<Placemark><name>南インドの定食と軽食 三燈舎</name><styleUrl>#c4</styleUrl><description><![CDATA[【メニュー】<br>ランチミールス ￥1,350（平日ランチタイムのみ）<br>サントーシャミールス ￥2,050（ディナータイムと土日ランチ）<br>プレーンドーサ ￥920<br>【営業時間】<br>ランチ：11:00～15:30（LO15:00）<br>ディナー：17:30～22:00（LO21:00）<br>【定休日】月曜日、夏期休暇、年末年始、臨時休業あり<br>【最寄駅】<br>神保町駅 徒歩4分<br>小川町 徒歩3分<br>御茶ノ水駅 徒歩8分<br>【住所】千代田区神田小川町3-2 古室ビル2階<br>【電話】050-3697-2547<br>【お知らせ】<br>テイクアウトはディナータイムのみとなります。<br>-------------------<br>営業時間等変更になる場合はSNSでお知らせいたします。<br>設備メンテナンス等で臨時休業することがありますがその場合はSNSでお知らせいたします。<br>https://www.facebook.com/santosham0/<br>-------------------------<br>ランチミールスは平日ランチタイムのみのご用意です。<br>それ以外の時間帯（ディナータイムと土日ランチ）はサントーシャミールスの提供となります。<br>公式ページ: https://kanda-curry.com/南インドの定食と軽食-三燈舎/]]></description><Point><coordinates>139.762684,35.694784,0</coordinates></Point></Placemark>
<Placemark><name>ムアンタイ～west India kitchen～</name><styleUrl>#c4</styleUrl><description><![CDATA[【メニュー】<br>南インドカレー(スープ・サラダ付) ￥1,210(ランチ）<br>カオソーイ(スープ・サラダ付) ￥1,210（ランチ）<br>タイスキミックス 1人前￥3,300(2名様〜要予約）<br>【営業時間】<br>ランチ 11:00～15:00（LO14:30）<br>ディナー 18:00～23:00（LO22:00）<br>【定休日】土・日・祝・年末年始<br>【最寄駅】<br>地下鉄神保町駅A7徒歩3分<br>【住所】千代田区神田神保町1-35-2<br>【電話】03-5577-7511<br>公式ページ: https://kanda-curry.com/タイスキレストラン%E3%80%80ムアン・タイ・なべ/]]></description><Point><coordinates>139.759163,35.694813,0</coordinates></Point></Placemark>
</Folder>
<Folder><name>東南アジア・中国</name>
<Placemark><name>CURRY BAR CAFE 三月の水</name><styleUrl>#c5</styleUrl><description><![CDATA[【メニュー】<br>無水ココナッツ国産牛すじカレー ￥1,530／ランチ￥1,380<br>無水ココナッツ牡蠣カレー¥1,680／ランチ¥1,530<br>無水ココナッツ豚バラ角煮カレー¥1,570／ランチ¥1,420<br>【営業時間】<br>ランチ 11:30～14:30(LO14:00)<br>バー 18:30～24:00（LO23:00）<br>【定休日】日・祝、土曜日不定休、お盆、年末年始<br>【最寄駅】<br>地下鉄 神保町駅 A5出口 徒歩3分<br>【住所】千代田区神田小川町3-14-2漢陽ビル3階<br>【電話】03-5281-7670<br>【お知らせ】<br>臨時休業などはオフィシャルサイトをご覧ください。<br>公式ページ: https://kanda-curry.com/三月の水/]]></description><Point><coordinates>139.760936,35.696436,0</coordinates></Point></Placemark>
<Placemark><name>九段下 wata軒</name><styleUrl>#c5</styleUrl><description><![CDATA[【メニュー】<br>燻製ココナッツレッドカレー ￥1200（ランチのみ）<br>ガパオライス ￥1,100<br>おつまみカレー ￥800（ディナーのみ）<br>【営業時間】<br>平日ランチ 12:00～15:00（LO14:30）<br>月～金ディナー 17:00～24:00（LO23:00）<br>土曜日ディナー 18:00～23:30（LO23:00）<br>【定休日】土ランチ・日・祝、夏季休暇、年末年始<br>【最寄駅】<br>地下鉄 九段下駅5番出口 徒歩1分<br>【住所】千代田区九段北1-3-12 嘉仲ビル1F<br>【電話】050-1240-3521<br>【お知らせ】<br>二十歳未満の方はテイクアウトをご利用ください（喫煙可能店のため）。<br>ディナータイムはチャージ400円とドリンクオーダーをお願いしております。<br>テイクアウトはランチのみです。<br>インスタで情報も発信していますので、ご確認いただけると幸いです→https://www.instagram.com/wataken_9danshita<br>公式ページ: https://kanda-curry.com/?p=11874]]></description><Point><coordinates>139.751722,35.695924,0</coordinates></Point></Placemark>
<Placemark><name>SADEC TOKYO</name><styleUrl>#c5</styleUrl><description><![CDATA[【メニュー】<br>牛バラ肉カレー ￥1,500<br>チキンカレー ￥1,400<br>フーティウ（米麺料理）￥1,000～<br>【営業時間】<br>平日ランチ 11:00~14:30(LO14:00) <br>平日ディナー 17:00~22:00(LO21:30) <br>土曜日ランチ 10:30~14:30(LO14:00) <br>土曜日ディナー17:00~22:00(LO21:30)<br>【定休日】日・祝、年末年始<br>【最寄駅】<br>丸の内線 淡路町駅A6出口徒歩3分<br>【住所】千代田区神田司町2-5-7<br>【電話】03-5280-7115<br>【お知らせ】<br>・休業日：8/10、11/2、日曜日・祝日は定休日（Goolgemapにも営業時間を随時更新致しますので、ご来店の前にご確認ください）<br> Googlemap URL:https://share.google/rrs36eZOn3zybOkAC<br>・ランチ営業時間の12:00〜13:00の間は非常に混みあいますので、席案内までお待ち頂く場合がございます。<br> そのため、ご来店時間を前後にずらしてご来店をご検討ください。<br>・原材料高騰の為スタンプラリー期間中でも値上げさせて頂く可能性がございます。<br>・お客様がいらっしゃらない場合は、21:30頃に閉店する場合があります（特に土曜日）<br> 何卒ご理解くださいますようお願いいたします。<br>・営業情報などのお知らせは【スマホ版】やinstagram <br>(https://www.instagram.com/sadec_tokyo/)で貸切情報をお知らせいたします。<br>(20260727)<br>公式ページ: https://kanda-curry.com/?p=15403]]></description><Point><coordinates>139.766905,35.693289,0</coordinates></Point></Placemark>
<Placemark><name>JICCA</name><styleUrl>#c5</styleUrl><description><![CDATA[【メニュー】<br>メインメニュー：<br>茄子の麻辣キーマとルーローハン ランチ￥1,300／ディナー￥1,430<br>その他メニュー：<br>キーマとルーローハン ランチ￥1,300／ディナー￥1,430<br>チーズキーマとルーローハン ランチ￥1,500／ディナー￥1,650<br>【営業時間】<br>平日ランチ 11:30〜14:00（LO13:30）<br>平日ディナー 17:30〜22:30（LO21:30）<br>【定休日】土日祝、年末年始、お盆<br>【最寄駅】<br>地下鉄小川町駅B5出口 徒歩3分<br>地下鉄新御茶ノ水駅B3b出口 徒歩3分<br>地下鉄神保町駅A5出口 徒歩8分<br>【住所】千代田区神田小川町2-6 小池ビルB1F<br>【電話】03-5801-6172<br>【お知らせ】<br>ディナータイムはワンドリンク制（550円～）とさせていただきます。<br>ディナータイム：スタンプラリーのお客様はチャージ無料<br>公式ページ: https://kanda-curry.com/?p=19826]]></description><Point><coordinates>139.763514,35.695529,0</coordinates></Point></Placemark>
<Placemark><name>タイ料理ジャンピー</name><styleUrl>#c5</styleUrl><description><![CDATA[【メニュー】<br>プーパッポンカレー（ディナー限定） ￥2,290/ハーフ￥1,880<br>ガイガパオ ランチ￥1,090/ディナー￥1,260<br>グリーンカレー ランチ￥1,090/ディナー￥1,260<br>【営業時間】<br>平日ランチ 11:15～15:00(LO14:45) <br>平日ディナー 17:00～22:30(LO22:00)<br>土曜ランチ 11:30～15:00(LO14:45) <br>土曜ディナー 17:00～21:30(LO21:00)<br>【定休日】日・祝、年末年始<br>【最寄駅】<br>地下鉄神田駅 A4出口 徒歩2分<br>JR神田駅 北口 徒歩3分<br>小川町・淡路町駅 A1出口 徒歩4分<br>【住所】千代田区神田鍛冶町3-5-2 工藤ビル1F<br>【電話】03-6206-8987<br>【お知らせ】<br>営業時間等変更になる場合はSNS等でお知らせいたします。<br>公式ページ: https://kanda-curry.com/?p=2250]]></description><Point><coordinates>139.77014,35.694048,0</coordinates></Point></Placemark>
<Placemark><name>タイレストラン メナムのほとり 神保町本店</name><styleUrl>#c5</styleUrl><description><![CDATA[【メニュー】<br>グリーンカレー ¥1,650<br>ソフトシェルのカレー炒め ￥2,200<br>豚肉入り森のカレー ￥1,760<br>【営業時間】<br>平日ランチ 11:00～15:00（LO）<br>平日ディナー 17:30～22:00（LO）<br>土日祝ランチ 11:00～16:30（LO）<br>土日祝ディナー 16:30～21:00（LO）<br>【定休日】年末年始<br>【最寄駅】<br>地下鉄神保町駅A7出口 徒歩1分<br>【住所】千代田区神田神保町1-13-10 西インド会社本社ビル1・2F<br>【電話】03-3238-9597<br>公式ページ: https://kanda-curry.com/メナムのほとり-2/]]></description><Point><coordinates>139.757692,35.695434,0</coordinates></Point></Placemark>
<Placemark><name>チャントーヤ ココナッツ カリー</name><styleUrl>#c5</styleUrl><description><![CDATA[【メニュー】<br>⑫ひき肉とじゃがいもとトマトの焼チーズカリー ￥1,400<br>⑤チキンとほうれん草のふんわり卵カリー ￥1,250<br>③野菜カリー ￥1,250<br>【営業時間】<br>平日 ランチ 11：00～15：00<br>平日ディナー 15：00～22：00（ＬＯ21：30）<br>土日祝 11：00～21：00（ＬＯ20：30）<br>【定休日】年末年始<br>【最寄駅】<br>ＪＲ御茶ノ水駅・聖橋口より徒歩７分<br>神保町駅・Ａ５出口より徒歩７分<br>新御茶ノ水駅・Ｂ３出口より徒歩５分<br>小川町駅・Ｂ５出口より徒歩５分<br>【住所】千代田区神田小川町3-28-7 昇龍館ビル1Ｆ<br>【電話】03-5281-4747<br>公式ページ: https://kanda-curry.com/?p=786]]></description><Point><coordinates>139.76302,35.696219,0</coordinates></Point></Placemark>
<Placemark><name>中国料理 翠</name><styleUrl>#c5</styleUrl><description><![CDATA[【メニュー】<br>翠式カリー炒飯 ¥1,210<br>龍醤担担麺(伊勢海老風味の担担麺) ¥1,430<br>フカヒレ姿煮重・ランチ¥2,970/ディナー ¥3,300<br>【営業時間】<br>ランチ 11:00~14:30(LO) <br>平日ディナー 17:00~21:30(LO20:50) <br>土曜ディナー 17:00~21:00(LO20:20)<br>【定休日】日・祝、年末年始<br>【最寄駅】<br>JR市ヶ谷駅 徒歩2分<br>【住所】千代田区九段北4-2-25 アルカディア市ヶ谷 私学会館 2F<br>【電話】03-6685-0544<br>【お知らせ】<br>カレーはランチメニューです。 ディナータイムもご提供可能の場合が ありますが、事前にお問合せください。<br>公式ページ: https://kanda-curry.com/中国料理-翠/]]></description><Point><coordinates>139.737698,35.692009,0</coordinates></Point></Placemark>
<Placemark><name>バンコックコスモ食堂</name><styleUrl>#c5</styleUrl><description><![CDATA[【メニュー】<br>チェンマイカレー ランチ￥900／ディナー￥1,000<br>カレー（グリーン＋チェンマイ）セット ¥950<br>カオソイ（チェンマイカレー拉麺） ¥1,100（ディナーのみ）<br>【営業時間】<br>平日ランチ 11:00～17:00（LO）<br>平日ディナー 17:00～22:30（LO21:45）<br>土日祝ランチ 11:00～15:00（LO14:30）<br>土日祝ディナー 17:30～22:30（LO21:45）<br>【定休日】年末年始<br>【最寄駅】<br>地下鉄神保町A4出口 徒歩4分<br>JR水道橋東口 徒歩4分<br>【住所】千代田区西神田2-1-13 櫻井ビル1F<br>【電話】03-6261-1977<br>公式ページ: https://kanda-curry.com/バンコックコスモ食堂/]]></description><Point><coordinates>139.756486,35.69872,0</coordinates></Point></Placemark>
<Placemark><name>バンコック ポニー食堂 岩本町店</name><styleUrl>#c5</styleUrl><description><![CDATA[【メニュー】<br>カオソーイ ランチ￥950／ディナー￥1,100<br>チェンマイカレー ランチ ¥900/ディナー¥1,000<br>パネーンムー ¥950(ディナーのみ)<br>【営業時間】<br>ランチ 11:15~15:00(LO14:30) <br>ディナ 17:30~23:00(LO21:30)<br>【定休日】年末年始<br>【最寄駅】<br>地下鉄 岩本町駅A5出口 徒歩2分<br>地下鉄 秋葉原駅4出口 徒歩4分<br>JR 秋葉原駅昭和通り口 徒歩7分<br>【住所】千代田区岩本町3-3-14 CMビル1F<br>【電話】03-5839-2959<br>公式ページ: https://kanda-curry.com/バンコック-ポニー食堂-岩本町店/]]></description><Point><coordinates>139.776568,35.694774,0</coordinates></Point></Placemark>
<Placemark><name>メナムのほとり 神保町テラススクエア店</name><styleUrl>#c5</styleUrl><description><![CDATA[【メニュー】<br>メナムセット ¥1,480<br>グリーンカレーセット ¥1,100<br>ガパオセット ¥1,250<br>【営業時間】<br>平日ランチ 11:30～ 15:00（LO）<br>平日ディナー 17:30～22:00（LO21:00）<br>【定休日】土・日・祝、年末年始<br>【最寄駅】<br>都営三田線神保町駅A9出口徒歩２分<br>【住所】千代田区神田錦町3-22 テラススクエア2F<br>【電話】03-5577-4494<br>公式ページ: https://kanda-curry.com/メナムのほとり-神保町テラススクエア店/]]></description><Point><coordinates>139.760147,35.693517,0</coordinates></Point></Placemark>
</Folder>
<Folder><name>スープ</name>
<Placemark><name>＆スリランカTOKYO（旧RスリランカTOKYO）</name><styleUrl>#c6</styleUrl><description><![CDATA[【メニュー】<br>豚肩ロースステーキカレー ￥1,500<br>ドライカレー ￥1, 100<br>ガーリックシュリンプカレー ￥1,300<br>【営業時間】<br>11:00～21:30（LO21:00）<br>【定休日】年末年始<br>【最寄駅】<br>地下鉄神保町駅A5出口 徒歩３分<br>JR水道橋駅西口 徒歩５分<br>【住所】千代田区神田神保町1-54-5 JHVビル1F<br>【電話】03-5280-7066<br>【お知らせ】<br>カレーがなくなり次第、営業終了です。<br>公式ページ: https://kanda-curry.com/?p=15400]]></description><Point><coordinates>139.757185,35.698233,0</coordinates></Point></Placemark>
<Placemark><name>Eblack （エブラック）</name><styleUrl>#c6</styleUrl><description><![CDATA[【メニュー】<br>スープカレー ランチ￥1,100～／ディナー￥1,100<br>カクテル ￥800～<br>ウイスキー ￥700～<br>【営業時間】<br>ランチ月～金 11:40～14:00<br>ディナー月～金 18:00～25:00<br>【定休日】土・日・祝、年末年始<br>【最寄駅】<br>都営新宿線小川町駅B7 出口徒歩5分<br>【住所】千代田区神田小川町3-11 ダイワビルB1階<br>【電話】03-3294-5671<br>【お知らせ】<br>ディナータイムは、チャージ料金500円を頂戴しております。<br>二十歳未満の方はテイクアウトをご利用ください（喫煙可能店のため）。<br>公式ページ: https://kanda-curry.com/?p=486]]></description><Point><coordinates>139.762722,35.693936,0</coordinates></Point></Placemark>
<Placemark><name>オオドリー＜鴻＞ 神田駿河台店</name><styleUrl>#c6</styleUrl><description><![CDATA[【メニュー】<br>赤、黒2種スープカレー ￥1,650<br>野菜カレー（赤・黒スープ） ￥1,200<br>チキンレッグカレー（赤・黒スープ） ￥1,400<br>【営業時間】<br>10:30〜20:00（LO19:30）<br>【定休日】年末年始<br>【最寄駅】<br>ＪＲ線 御茶ノ水駅 御茶ノ水橋口、<br>都営地下鉄 神保町駅 Ａ５<br>【住所】〒101-0052東京都千代田区神田小川町3-10-18<br>【電話】03-5280-8228<br>公式ページ: https://kanda-curry.com/?p=520]]></description><Point><coordinates>139.761365,35.696331,0</coordinates></Point></Placemark>
<Placemark><name>オオドリー〈鴻〉神保町すずらん通り店</name><styleUrl>#c6</styleUrl><description><![CDATA[【メニュー】<br>赤スープカレー炙りチキン入り ￥1,400<br>野菜カレー（赤・黒スープ） ￥1,200<br>黒毛和牛100％ハンバーグカレー（赤・黒スープ） ￥1,450<br>【営業時間】<br>月～土ランチ 11:00～14:30（LO14:00）<br>月火木金ディナー 17:00～21:00（LO20:30）<br>【定休日】日、お盆、年末年始<br>【最寄駅】<br>地下鉄神保町A7出口より徒歩３分<br>【住所】東京都千代田区神田神保町1-25<br>【電話】03-5280-9211<br>【お知らせ】<br>「オオドリー〈鴻〉本店」から、「オオドリー〈鴻〉神保町すずらん通り店」に店名が変わりました。<br>公式ページ: https://kanda-curry.com/?p=2619]]></description><Point><coordinates>139.760268,35.695049,0</coordinates></Point></Placemark>
<Placemark><name>カレー食堂 心 秋葉原店</name><styleUrl>#c6</styleUrl><description><![CDATA[【メニュー】<br>手ごねラムハンバーグのスープカレー ￥1,850<br>1日分野菜のスープカレー ￥1,690<br>もち豚ポークスパイスカレー ￥1,390<br>【営業時間】<br>11:00～22:00(LO21:30)<br>【定休日】年末年始<br>【最寄駅】<br>地下鉄末広町駅 3番出口 徒歩3分<br>JR秋葉原駅電気街口 徒歩5分<br>【住所】千代田区外神田3-11-4 アパホテル秋葉原駅電気街口1F<br>【電話】03-6271-7223<br>公式ページ: https://kanda-curry.com/カレー食堂-心-秋葉原店/]]></description><Point><coordinates>139.770604,35.70071,0</coordinates></Point></Placemark>
<Placemark><name>札幌スープカレー絲 神保町店</name><styleUrl>#c6</styleUrl><description><![CDATA[【メニュー】<br>骨なし煮込みチキン ¥1,450<br>北海道ザンギ ￥1,400<br>よくばり絲Special ￥2,950<br>【営業時間】<br>ランチ 11:00~16:00(LO15:30) <br>ディナー 17:00~21:00(LO20:30)<br>【定休日】不定休、年末年始<br>【最寄駅】<br>神保町駅 A5出口 徒歩1分<br>【住所】千代田区神田神保町1-6 樋谷ビル 1F・2F<br>【電話】03-6811-0708<br>公式ページ: https://kanda-curry.com/?p=16626]]></description><Point><coordinates>139.759325,35.696175,0</coordinates></Point></Placemark>
</Folder>
<Folder><name>麺・パン</name>
<Placemark><name>イチガヤキッチン ワキータ</name><styleUrl>#c7</styleUrl><description><![CDATA[【メニュー】<br>牛筋カレーラーメン ¥1,000<br>日替わり豚汁定食 ¥950<br>味噌豚カツ定食 ¥1,200<br>【営業時間】<br>ランチ 11:00~14:30(LO)<br>ディナー 17:00~22:00(LO)<br>【定休日】土日祝、年末年始<br>【最寄駅】<br>JR市ヶ谷駅 徒歩2分<br>【住所】千代田区九段北4-2-7<br>【電話】03-6272-8329<br>公式ページ: https://kanda-curry.com/?p=16729]]></description><Point><coordinates>139.737902,35.691827,0</coordinates></Point></Placemark>
<Placemark><name>お好み焼 ねぎ焼 十々</name><styleUrl>#c7</styleUrl><description><![CDATA[【メニュー】<br>謹製牛すじカレーやきそば ランチ￥1,200／ディナー￥1,400<br>平日ランチ11:30～13:45（LO13:30）と平日ディナー17:30～18:45（LO18:30）（なくなり次第終了）<br>ぶた玉 ランチ￥800／ディナー￥1,050<br>ぶたチーズ玉 ランチ￥900／ディナー￥1,250<br>【営業時間】<br>平日ランチ 11:30～13:45（LO13:30）<br>平日ディナー 17:30～18:45（LO18:30）<br>【定休日】土日祝、お盆、年末年始<br>【最寄駅】<br>地下鉄神保町駅 A5出口より徒歩約3分<br>JR御茶ノ水駅 御茶ノ水橋口より徒歩5分<br>【住所】千代田区神田小川町3-10-15 T&amp;AビルB1F<br>【電話】03-5577-6552<br>【お知らせ】<br>食材の値上げ幅があまりに大きく、<br>謹製牛すじカレーやきそばの料金を改定させていただきます。<br> ランチ1200円→1300円<br> ディナー1400円→1500円<br>ご理解くださいますよう、どうぞよろしくお願いいたします。<br>（20260902）<br>謹製牛すじカレーやきそばは、平日ランチタイムと平日ディナータイムの提供です。なくなり次第終了です<br>公式ページ: https://kanda-curry.com/?p=13272]]></description><Point><coordinates>139.761105,35.696263,0</coordinates></Point></Placemark>
<Placemark><name>厳選煮干しらーめん 初代 にぼ助</name><styleUrl>#c7</styleUrl><description><![CDATA[【メニュー】<br>ミャンマーシェフ直伝 本格カレーまぜそば ￥1,500<br>特製にぼ助らーめん ¥1,350<br>特製にぼ助つけ麺 ¥1,400<br>【営業時間】<br>平日ランチ 11:00~15:00(LO) <br>平日ディナー 17:00~22:00(LO)<br>土日祝 11:00~15:00(LO)<br>【定休日】お盆、年末年始<br>【最寄駅】<br>JR御茶ノ水駅聖橋口 徒歩2分<br>【住所】千代田区神田駿河台2-10-6 ボルトお茶の水1階<br>【電話】03-5244-5499<br>公式ページ: https://kanda-curry.com/?p=15484]]></description><Point><coordinates>139.76426,35.698819,0</coordinates></Point></Placemark>
<Placemark><name>神保町イタリアン Cuore d’oro</name><styleUrl>#c7</styleUrl><description><![CDATA[【メニュー】<br>ショートパスタと食べるスペアリブカレー ¥1,700<br>玄米のクスクスと食べるスペアリブカレー ￥1,700<br>スペアリブカレー クラフトビール付 ¥2,100<br>【営業時間】<br>火～土ランチ 11:30～13:30（LO）<br>ディナー 17:30～21:00（LO）<br>【定休日】月ランチ・日・祝、お盆、年末年始<br>【最寄駅】<br>地下鉄 神保町駅 A5出口 徒歩2分<br>【住所】千代田区神田神保町1-14-16 2F<br>【電話】03-3518-2307<br>公式ページ: https://kanda-curry.com/?p=9668]]></description><Point><coordinates>139.758307,35.696778,0</coordinates></Point></Placemark>
<Placemark><name>蕎麦ダイニング 煉 神田店</name><styleUrl>#c7</styleUrl><description><![CDATA[【メニュー】<br>肉タンタンカレー蕎麦・うどん ￥1,130<br>豚バラカレー蕎麦・うどん ￥980<br>肉タンタン納豆カレーランチ（ミニ蕎麦付き） ￥1,130<br>【営業時間】<br>ランチ 11:30～14:30（LO14:00）<br>ディナー 17:30～22:30（LO22:00）<br>カレーの提供もはランチのみです。どうぞよろしくお願いいたします。<br>【定休日】土・日・祝、お盆、年末年始<br>【最寄駅】<br>都営新宿線岩本町駅 A2出口 徒歩2分<br>JR秋葉原駅 徒歩5分<br>【住所】千代田区神田須田町2-13-10 アーバイル神田EAST 1F<br>【電話】03-5289-7630<br>【お知らせ】<br>カレーはランチのみの提供です。<br>公式ページ: https://kanda-curry.com/?p=9650]]></description><Point><coordinates>139.774289,35.696447,0</coordinates></Point></Placemark>
<Placemark><name>PIZZA K 新御茶ノ水店</name><styleUrl>#c7</styleUrl><description><![CDATA[【メニュー】<br>本場ネパールカレーパスタ<br>￥1,400<br>マルゲリータ ￥880<br>ナポレターナ ￥1, 320<br>【営業時間】<br>ランチ 月〜金 11:00～15:30（LO15:00）<br>ランチ 土日祝 11:30～15:30（LO15:00）<br>ディナー 月〜土 17:00～23:00（LO22:00）<br>【定休日】日祝ディナー、お盆<br>【最寄駅】<br>地下鉄 新御茶ノ水駅 B3b出口徒歩3分<br>【住所】千代田区神田小川町3-26-20 大築ビル1F<br>【電話】03-5571-4391<br>公式ページ: https://kanda-curry.com/pizza-k/]]></description><Point><coordinates>139.762717,35.696338,0</coordinates></Point></Placemark>
<Placemark><name>ブラザーズ御茶の水店</name><styleUrl>#c7</styleUrl><description><![CDATA[【メニュー】<br>メインメニュー：<br>カントリーキャプテン（スパイスポークカレー）バーガー ￥2,200<br>その他<br>ハンバーガー ￥1,595<br>チリビーンズバーガー ￥1,870<br>【営業時間】<br>11:00～21:30（LO21:00）<br>【定休日】1/1・1/2<br>【最寄駅】<br>JR御茶ノ水駅聖橋口 徒歩6分<br>地下鉄小川町駅B5出口 徒歩5分<br>地下鉄新御茶ノ水駅B3b出口 徒歩3分<br>【住所】千代田区神田小川町3-28-7-102<br>【電話】03-6260-5801<br>公式ページ: https://kanda-curry.com/?p=19820]]></description><Point><coordinates>139.763002,35.696208,0</coordinates></Point></Placemark>
<Placemark><name>ミスターラーメン</name><styleUrl>#c7</styleUrl><description><![CDATA[【メニュー】<br>牛タンカレーまぜそば ￥1,200<br>シャリシャリ冷麺 ￥1,000<br>背脂煮干しそば ￥1,000<br>【営業時間】<br>平日 11:30～14:00（LO13:30）<br>土日祝 11:30～15:00（LO14:30）<br>【定休日】年末年始<br>【最寄駅】<br>地下鉄末広町駅2番出口 徒歩1分<br>JR御徒町駅南口 徒歩7分<br>【住所】千代田区外神田5-2-13<br>【電話】03-5846-2929<br>【お知らせ】<br>ランチタイムだけの提供です<br>公式ページ: https://kanda-curry.com/?p=18704]]></description><Point><coordinates>139.77243,35.7038,0</coordinates></Point></Placemark>
<Placemark><name>最上楽農園</name><styleUrl>#c7</styleUrl><description><![CDATA[【メニュー】<br>いも煮カレーうどん ¥1,500<br>スパイシーカレーせいろ ¥1,100<br>牛スジ煮込せいろ ¥1,100<br>【営業時間】<br>11:00 ~ 21:00(LO20:30)<br>【定休日】土・日・祝、年末年始(12/29~1/4)<br>【最寄駅】<br>JR神田駅 北口 徒歩2分<br>銀座線神田駅 2番出口 徒歩2分<br>丸ノ内線淡路町駅 A2出口 徒歩5分<br>【住所】千代田区内神田3-24-5 エッサム神田ホール2号館2F<br>【電話】03-5298-6912<br>【お知らせ】<br>カレーは無くなり次第終了です。 貸切営業のため、お食事頂けない 場合があります。<br>公式ページ: https://kanda-curry.com/?p=15501]]></description><Point><coordinates>139.769211,35.692497,0</coordinates></Point></Placemark>
<Placemark><name>ワイルドレッドパスタ神保町店</name><styleUrl>#c7</styleUrl><description><![CDATA[【メニュー】<br>チキンレッドカレーパスタ ￥1,280<br>シメのバターライス ￥200<br>からいトマトパスタ ￥990<br>【営業時間】<br>ランチ 11:30～15:00（LO）<br>ディナー 17:00～21:00（LO）<br>【定休日】日、お盆、年末年始<br>【最寄駅】<br>地下鉄神保町駅A2出口徒歩2分<br>地下鉄九段下駅5出口徒歩3分<br>【住所】千代田区神田神保町3-2<br>【電話】080-2926-4440<br>公式ページ: https://kanda-curry.com/?p=18679<br>※位置は住所からの推定（概算）]]></description><Point><coordinates>139.754456,35.696079,0</coordinates></Point></Placemark>
</Folder>
<Folder><name>その他・オリジナル</name>
<Placemark><name>AKL 〜カレーなる酒場〜</name><styleUrl>#c8</styleUrl><description><![CDATA[【メニュー】<br>カレーボウル 各種 ￥800～（ランチのみ）<br>カレーのあたま（キーマのルー） ￥200（ディナー）<br>生ビール ￥500（ディナー）<br>【営業時間】<br>ランチ 11:30～13:30（LO）<br>ディナー（立ち飲み） 19:00～21:00（LO）<br>※変更する場合があるので、詳しくは、公式ホームページをご確認ください<br>https://aklcurry.jp/<br>【定休日】土・日・祝、年末年始<br>【最寄駅】<br>地下鉄淡路町駅 A1 A2出口徒歩3分<br>地下鉄小川町駅 A1 A2出口徒歩3分<br>【住所】千代田区神田司町2-10-19 1F<br>【電話】akl.tellu@gmail.com<br>【お知らせ】<br>【ランチタイムお休みのお知らせ】<br>2週間程度の予定で、ランチタイムをお休みさせていただきます。<br>再開の際には改めてお知らせいたします。<br>（20260802）<br>二十歳未満の方はテイクアウトをご利用ください（喫煙可能店のため）。<br>【カレーの提供について】<br>カレーボウルはランチのみです。<br>ディナータイムはルーのみの提供で、<br>アルコールのオーダーが必須です。<br>公式ページ: https://kanda-curry.com/?p=5151]]></description><Point><coordinates>139.768093,35.694647,0</coordinates></Point></Placemark>
<Placemark><name>秋葉原 カリガリ</name><styleUrl>#c8</styleUrl><description><![CDATA[【メニュー】<br>アキバ盛りカレー ￥1,460（ランチ￥1,230）<br>カリガリカレー ￥950（ランチ￥890）<br>インドカレー ￥950（ランチ￥890）<br>【営業時間】<br>平日 11:30〜15:00（LO 14:30）<br> 17:00〜22:00（LO21:30）<br>土日祝 11:00〜22:00（LO21:30）<br>【定休日】年末年始<br>【最寄駅】<br>地下鉄 末広町駅3番 徒歩1分<br>【住所】〒101-0021<br>千代田区外神田3-6-9 沖村ビル1F<br>【電話】03-3527-1262<br>公式ページ: https://kanda-curry.com/?p=3439]]></description><Point><coordinates>139.770021,35.70283,0</coordinates></Point></Placemark>
<Placemark><name>居酒屋kater</name><styleUrl>#c8</styleUrl><description><![CDATA[【メニュー】<br>チキンキーマカレー ¥1,300<br>Schweine schnitzel 定食 ¥1,500<br>自家製山椒サワー ¥768<br>【営業時間】<br>月～土ランチ 11:30～14:00（LO13:45）<br>ディナー 17:30～23:00（LO22:00）<br>【定休日】日・祝、水ディナー、お盆、年末年始<br>【最寄駅】<br>岩本町駅 A2番出口 徒歩1分<br>秋葉原駅 昭和通り改札 徒歩5分<br>【住所】千代田区神田須田町2-11-8 玉甚ビルC<br>【電話】070-8975-5716<br>【お知らせ】<br>●8/8（土）～8/11（火）はお盆休みとなります。<br>●カレーはランチのみの提供です。最新情報は X<br> にて。<br>●小さい店舗の為保存場所がありません。平日ランチでも提供が出来ない場合もございます。<br>その際は店舗の X<br> にて情報発信いたします。<br>●ディナータイムは、カレーを提供しておりません。<br>●ディナータイムは、チャージ500円がかかります。また、料理1品（約550円～）とドリンク1杯（約600円～）のご注文をお願いしています。料理1品＋ドリンク1杯の場合は、滞在時間を45分間とさせていただいています。<br>（20260728）<br>公式ページ: https://kanda-curry.com/?p=16747]]></description><Point><coordinates>139.774292,35.696056,0</coordinates></Point></Placemark>
<Placemark><name>いわし料理 大松</name><styleUrl>#c8</styleUrl><description><![CDATA[【メニュー】<br>いわしカレー ランチ￥1,200／ディナー￥1,500<br>いわし刺身 ￥880<br>いわし丸干し￥650<br>【営業時間】<br>平日ランチ 11:00～13:30（LO）<br>平日ディナー 16:30～21:00（LO）<br>土曜ディナー 16:30～20:00（LO）<br>【定休日】日・祝、GW、お盆、年末年始<br>【最寄駅】<br>銀座線神田駅 3番出口 徒歩２分<br>JR神田駅東口 徒歩4分<br>【住所】千代田区鍛冶町2-10-7 フェスタビル 1Ｆ<br>【電話】03-3252-6540<br>公式ページ: https://kanda-curry.com/?p=14295]]></description><Point><coordinates>139.772227,35.693875,0</coordinates></Point></Placemark>
<Placemark><name>お茶の水、大勝軒</name><styleUrl>#c8</styleUrl><description><![CDATA[【メニュー】<br>復刻版カツライスカレー ￥1,400<br>復刻版 カレー中華 ￥1,300<br>復刻版 もりカレー ￥1,300<br>【営業時間】<br>11:00～21:00（LO）<br>【定休日】月、お盆、年末年始<br>【最寄駅】<br>地下鉄 神保町駅 A7出口<br>地下鉄 小川町、新御茶ノ水、淡路町 B7出口<br>JR御茶ノ水駅 御茶ノ水橋口<br>【住所】〒101-0052<br>千代田区神田小川町 3-1-5 須田ビル1F<br>【電話】03-3291-9933<br>【お知らせ】<br>ミニカレーのみではスタンプ押印できません。<br>テイクアウトはカレーライス、カツライスカレー、もりカレーが可能です。<br>公式ページ: https://kanda-curry.com/?p=4981]]></description><Point><coordinates>139.762134,35.694659,0</coordinates></Point></Placemark>
<Placemark><name>cafe ＆ dining jimbocho</name><styleUrl>#c8</styleUrl><description><![CDATA[【メニュー】<br>ベルモットと柑橘薫るキーマカレー（写真はディナー）<br>ディナー￥1,650／ランチ￥1,480〜￥1,860<br>ランチBセット（サラダバー、ドリンクバー、スープ付） ￥1,580<br>GPカレー ディナー￥1,650／ランチ￥1,280<br>【営業時間】<br>ランチ 11:30～15:00（LO14:30）<br>ディナー 18:00～22:00（LO21:00）<br>【定休日】土・日・祝、お盆、年末年始<br>【最寄駅】<br>地下鉄新御茶ノ水駅 B7出口 徒歩4分<br>地下鉄小川町駅 A6出口 徒歩5分<br>【住所】千代田区神田小川町3-11-2 インペリアルお茶の水2F<br>【電話】03-5577-6933<br>公式ページ: https://kanda-curry.com/?p=11204]]></description><Point><coordinates>139.762715,35.694009,0</coordinates></Point></Placemark>
<Placemark><name>カリーライス専門店 エチオピア本店</name><styleUrl>#c8</styleUrl><description><![CDATA[【メニュー】<br>チキンカリー ￥1,050<br>野菜・ 豆カリー ￥1,150<br>インド豆のサラダ ￥250<br>【営業時間】<br>月～土 10:10～22:30（LO 22:00）<br>日・祝 10:00～21:30（LO 21:00）<br>【定休日】無休<br>【最寄駅】<br>都営新宿線・三田線、東京メトロ半蔵門線 神保町駅A5出口から徒歩3分<br>東京メトロ千代田線小川町駅B5出口から徒歩4分<br>JR御茶ノ水駅御茶ノ水橋口から徒歩5分<br>【住所】〒101-0052千代田区神田小川町3-10-6<br>【電話】03-3295-4310<br>公式ページ: https://kanda-curry.com/?p=499]]></description><Point><coordinates>139.761404,35.696365,0</coordinates></Point></Placemark>
<Placemark><name>カレー食堂 たんど～る</name><styleUrl>#c8</styleUrl><description><![CDATA[【メニュー】<br>房総ポーク煮込カレー ¥1,380<br>トマトチキンカレー ￥980<br>プレーンカレー ¥680<br>【営業時間】<br>ランチ 11:30～14:30（LO）<br>月～土ディナー 17:00～21:00（LO）<br>日・祝ディナー 17:00～20:00（LO）<br>【定休日】年末年始<br>【最寄駅】<br>地下鉄 神保町駅A7出口 徒歩3分<br>【住所】千代田区神田神保町1-25-5 ベラージュ駿河台1F<br>【電話】03-6811-0623<br>公式ページ: https://kanda-curry.com/?p=15425]]></description><Point><coordinates>139.760393,35.695089,0</coordinates></Point></Placemark>
<Placemark><name>カレーショップ C&amp;C 秋葉原店</name><styleUrl>#c8</styleUrl><description><![CDATA[【メニュー】<br>米沢牛ビーフカレー ￥1,800<br>三元豚ロースかつカレー ￥880<br>プレーンカレー ￥600<br>【営業時間】<br>平日 10:00～22:00（LO）<br>土 10:00～21:00（LO）<br>日祝 10:00～20:00（LO）<br>【定休日】年末年始<br>【最寄駅】<br>JR秋葉原駅 昭和通り口 徒歩2分<br>地下鉄岩本町駅 A3出口 徒歩4分<br>【住所】千代田区神田佐久間町1-24 GATO秋葉原ビル<br>【電話】03-3256-7879<br>公式ページ: https://kanda-curry.com/?p=1752<br>※位置は住所からの推定（概算）]]></description><Point><coordinates>139.775192,35.698475,0</coordinates></Point></Placemark>
<Placemark><name>カレーショップ C&amp;C 有楽町店</name><styleUrl>#c8</styleUrl><description><![CDATA[【メニュー】<br>メインメニュー名：<br>ザ・とんかつカレー ￥1,250<br>その他<br>欧風ビーフカレー ￥800<br>朝カレー ￥480（LO11:00）<br>【営業時間】<br>平日 7:00～ 23:00（LO）<br>土日祝 9:00 ～ 21:00（LO）<br>【定休日】年末年始<br>【最寄駅】<br>JR有楽町駅京橋口 徒歩1分 <br>地下鉄有楽町駅D7出口 徒歩1分<br>【住所】千代田区有楽町2-9-14 JR有楽町駅京橋口改札前<br>【電話】03-3240-9599<br>公式ページ: https://kanda-curry.com/?p=19828]]></description><Point><coordinates>139.763916,35.675251,0</coordinates></Point></Placemark>
<Placemark><name>カレー屋ばんび</name><styleUrl>#c8</styleUrl><description><![CDATA[【メニュー】<br>セレブカレー ¥1,600<br>ポークカレー ¥1,250<br>グリーンカレー ¥1,250<br>【営業時間】<br>月～土ランチ 11:00～14:45（LO）<br>月～土ディナー 17:00～22:00（LO）<br>日祝ランチ 11:00～14:30（LO）<br>【定休日】不定休<br>【最寄駅】<br>地下鉄神保町駅 A5出口 徒歩4分<br>【住所】千代田区神田小川町3-10-17 木邑ビル 1F<br>【電話】03-3233-0034<br>【お知らせ】<br>二十歳未満の方はテイクアウトをご利用ください（喫煙可能店のため）。<br>公式ページ: https://kanda-curry.com/?p=911]]></description><Point><coordinates>139.761267,35.696388,0</coordinates></Point></Placemark>
<Placemark><name>喫茶センター（神保町ブックセンター内）</name><styleUrl>#c8</styleUrl><description><![CDATA[【メニュー】<br>センターカレー ￥1,000<br>カオマンガイ ￥1,250<br>サバライス ￥1,250<br>【営業時間】<br>平日 9:00～18:00（LO）<br>土日祝 10:00～18:00（LO）<br>※食事提供は11時から<br>【定休日】不定休、年末年始<br>【最寄駅】<br>地下鉄 神保町駅A6出口 徒歩30秒<br>【住所】千代田区神田神保町2-3-1<br>【電話】03-6268-9064<br>【お知らせ】<br>カレーの提供は11時からとなります。<br>公式ページ: https://kanda-curry.com/?p=8272]]></description><Point><coordinates>139.757555,35.695749,0</coordinates></Point></Placemark>
<Placemark><name>喫茶ちそう</name><styleUrl>#c8</styleUrl><description><![CDATA[【メニュー】<br>カレー ￥1,100<br>その他<br>マーズサンド ￥1,100<br>コンビーフサンド ￥1,600<br>【営業時間】<br>10:00～20:00（LO19:00）<br>【定休日】年始<br>【最寄駅】<br>地下鉄神保町駅A7出口 徒歩4分<br>【住所】千代田区神田神保町1-1 三省堂書店神田神保町本店3F<br>【電話】03-6826-9542<br>【お知らせ】<br>【テイクアウトにつきまして】<br>公式ガイドブックには、テイクアウト「あり」と記載があるのは、間違いです。<br>正しくは、テイクアウト「なし」となります。<br>訂正してお詫び申し上げます。<br>（20260726）<br>公式ページ: https://kanda-curry.com/?p=19804]]></description><Point><coordinates>139.760783,35.695627,0</coordinates></Point></Placemark>
<Placemark><name>キッチンカロリー駿河台下本店</name><styleUrl>#c8</styleUrl><description><![CDATA[【メニュー】<br>ロースカツカレー・エビフライトッピング ￥1,900<br>米沢豚のロースカツカレー ¥1,400<br>カロリー焼 ¥1,000<br>【営業時間】<br>11:00～16:00（LO）<br>【定休日】木曜日、お盆、年末年始<br>【最寄駅】<br>JR御茶ノ水駅 お茶の水橋口 徒歩6分<br>地下鉄神保町駅 A5出口 徒歩5分<br>【住所】千代田区神田小川町3-10 江本ビル1F<br>【電話】03-3291-3266<br>公式ページ: https://kanda-curry.com/?p=618]]></description><Point><coordinates>139.761345,35.696171,0</coordinates></Point></Placemark>
<Placemark><name>キッチンサウナ ＠サウナラボ神田</name><styleUrl>#c8</styleUrl><description><![CDATA[【メニュー】<br>メインメニュー名：<br>ハーブのココナッツカレー ¥1,300<br>その他<br>カレー&amp;ハーブティーセット ¥1,500<br>カレー&amp;ハーブティー＆サウナ90分セット ¥3,700<br>【営業時間】<br>水曜日 11:30～20:00（LO）<br>木金土日 11:30～15:00（LO）<br>（祝日も同じです）<br>【定休日】月火、8/2<br>【最寄駅】<br>地下鉄 神保町駅A9出口 徒歩4分 <br>地下鉄 竹橋駅3b出口 徒歩4分<br>【住所】千代田区神田錦町3-9 神田ポートビル<br>【電話】090-6591-5858<br>【お知らせ】<br>カレーは水と木金土日のランチのみで、木金土日は37食限定です。<br>公式ページ: https://kanda-curry.com/?p=19818]]></description><Point><coordinates>139.759576,35.692255,0</coordinates></Point></Placemark>
<Placemark><name>kitchen 723</name><styleUrl>#c8</styleUrl><description><![CDATA[【メニュー】<br>ふわとろチーズチキンカレー ランチ￥ 1,500<br>ふわとろチーズチキンカレー ディナー ￥1,900<br>ちょい呑みセット ￥1,500<br>【営業時間】<br>火～金ランチ 11:30～14:30（LO14:00）<br>月～土ディナー 18:00～23:00（LO22:30）<br>【定休日】日・祝、祝日の翌日のランチ、お盆、年末年始<br>【最寄駅】<br>JR神田駅 東口徒歩3分<br>地下鉄岩本町駅 A1出口 徒歩4分<br>【住所】千代田区鍛冶町2-11-17c-3<br>【電話】070-1370-8712<br>【お知らせ】<br>テイクアウトOKです<br>公式ページ: https://kanda-curry.com/?p=8278]]></description><Point><coordinates>139.772154,35.69396,0</coordinates></Point></Placemark>
<Placemark><name>くずしわしょく香季庵 日本橋店</name><styleUrl>#c8</styleUrl><description><![CDATA[【メニュー】<br>自家製 香季庵辛カレー（ランチのみ） ￥1,200<br>追いから揚げ ￥400<br>ドリンク ￥300～<br>【営業時間】<br>平日ランチ 11:30～15:00（LO14:30）<br>【定休日】土日祝、12/30～1/4 <br> ※土日祝も営業する場合あり、スタンプラリー期間はスマホ版でお知らせいたします。<br>【最寄駅】<br>JR 神田駅 南口より徒歩3分<br>銀座線 神田駅 1番出口より徒歩4分<br>銀座線 三越前駅 A8出口より徒歩4分<br>JR快速 新日本橋駅 2番出口より徒歩2分<br>【住所】中央区日本橋室町4-2-10 坂田ビルB1F<br>【電話】03-5551-0006<br>【お知らせ】<br>カレーはランチのみの提供です。<br>テイクアウトは現在ございません。<br>（20260428）<br>公式ページ: https://kanda-curry.com/?p=11437]]></description><Point><coordinates>139.772249,35.689759,0</coordinates></Point></Placemark>
<Placemark><name>Restaurant＆Wine グランタイム</name><styleUrl>#c8</styleUrl><description><![CDATA[【メニュー】<br>エビとアサリのホワイトカレー ランチ￥1,450/ディナー￥1,550<br>房総ポーク生姜焼きバラ ランチ￥1,380/ディナー￥1,460<br>昭和レトロなオムレツパスタ ランチランチ￥1,480/ディナー￥1,680<br>【営業時間】<br>月~金ランチ 11:30~16:30(LO16:00) <br>月~木ディナー 17:30~22:00(LO21:30)<br>金ディナー 17:30~23:00(LO22:00) <br>土曜日 11:30~22:00(LO21:30) <br>日曜日 11:30~21:00(LO20:30)<br>【定休日】年末年始<br>【最寄駅】<br>神保町駅 A7出口 徒歩3分<br>【住所】千代田区神田神保町1-19-1 1F<br>【電話】03-6803-3966<br>【お知らせ】<br>「エビとアサリのホワイトカレー」は、<br>ご提供時は、エビとアサリがカレールーに隠れております。<br>公式ページ: https://kanda-curry.com/?p=16738]]></description><Point><coordinates>139.76064,35.695223,0</coordinates></Point></Placemark>
<Placemark><name>KKRホテル東京</name><styleUrl>#c8</styleUrl><description><![CDATA[【メニュー】<br>ブラックビーフカレー ¥1,300(ランチのみ)<br>朝食ブッフェ ¥3,500(朝食ブッフェのみ)<br>テイクアウトカレー ¥1,300(平日ディナーのみ)<br>【営業時間】<br>朝食ブッフェ 6:45~9:00(LO8:30) <br>平日ランチ11:30~14:00(LO13:30) <br>※朝食ブッフェは土日祝日も営業しています。<br>【定休日】お盆、年末年始<br>【最寄駅】<br>東西線 竹橋駅 3b出口直結<br>都営地下鉄 神保町駅 A9出口徒歩5分<br>【住所】千代田区 大手町1‐4‐1<br>【電話】03-3287-2921<br>【お知らせ】<br>平日ディナータイムはテイクアウトのみ。<br>詳細はHPをご確認ください。<br>https://tokyo.kkr.or.jp<br>公式ページ: https://kanda-curry.com/?p=4573]]></description><Point><coordinates>139.760616,35.690688,0</coordinates></Point></Placemark>
<Placemark><name>ゴーゴーカレー 秋葉原1号店</name><styleUrl>#c8</styleUrl><description><![CDATA[【メニュー】<br>メインメニュー名：<br>ゴリエもん中盛（M） ￥1,250<br>その他<br>ロースカツカレー中盛（M） ￥1,050<br>チキンカツカレー中盛（M） ￥1,050<br>【営業時間】<br>9:55～21:55（LO）<br>【定休日】年中無休<br>【最寄駅】<br>JR秋葉原駅昭和通り口 徒歩2分<br>【住所】千代田区神田佐久間町1-16-1大橋ビル1F<br>【電話】03-5256-5525<br>公式ページ: https://kanda-curry.com/?p=1746]]></description><Point><coordinates>139.774621,35.697724,0</coordinates></Point></Placemark>
<Placemark><name>ゴーゴーカレー 秋葉原中央通店</name><styleUrl>#c8</styleUrl><description><![CDATA[【メニュー】<br>メジャーカレー中盛（M） ￥1,950<br>ロースカツカレー中盛（M） ￥1,050<br>チキンカツカレー中盛（M） ￥1,050<br>【営業時間】<br>9:55～21:55（LO）<br>【定休日】年中無休<br>【最寄駅】<br>秋葉原駅電気街北口改札徒歩3分<br>【住所】千代田区外神田1-11-7<br>【電話】03-6206-9855<br>【お知らせ】<br>食券購入後、スタッフがご案内します<br>公式ページ: https://kanda-curry.com/?p=1773]]></description><Point><coordinates>139.771133,35.699543,0</coordinates></Point></Placemark>
<Placemark><name>ゴーゴーカレー 神田駅南口パーク</name><styleUrl>#c8</styleUrl><description><![CDATA[【メニュー】<br>ロースカツカレー （小盛）￥1,000<br>ゴーゴーカレー （小盛）￥750<br>メジャーカレー ￥1,900～<br>【営業時間】<br>10:55～20:55（LO）<br>【定休日】年中無休<br>【最寄駅】<br>JR神田駅南口すぐ<br>【住所】千代田区 鍛冶町2-1-2 鋭光ビル地下1F<br>【電話】03-6206-4355<br>公式ページ: https://kanda-curry.com/?p=2243]]></description><Point><coordinates>139.771011,35.690875,0</coordinates></Point></Placemark>
<Placemark><name>ご当地レトルトカレー専門店 カレーランド神保町店</name><styleUrl>#c8</styleUrl><description><![CDATA[【メニュー】<br>ご当地レトルトカレー約200種類 ￥490～<br>カレーランドオリジナルレトルトカレー 多種<br>共同開発レトルトカレー 多種<br>【営業時間】<br>13:00～17:00（変動可能性あり）<br>※Googlemapで最新の営業日時をご確認ください。<br>【定休日】金・日、不定休あり<br>※Googlemapで最新の営業日時をご確認ください。<br>【最寄駅】<br>地下鉄神保町駅A4徒歩2分<br>【住所】千代田区神田神保町2-10-1<br>【電話】090-1964-4605<br>【お知らせ】<br>急なお休みが入る場合があるため、ご来店前にGooglemapなどで最新情報をご確認ください。<br>公式ページ: https://kanda-curry.com/?p=18189<br>※位置は住所からの推定（概算）]]></description><Point><coordinates>139.75592,35.697018,0</coordinates></Point></Placemark>
<Placemark><name>Komi&#x27;z</name><styleUrl>#c8</styleUrl><description><![CDATA[【メニュー】<br>淡路島産丸ごと玉ねぎカレー ¥800<br>手仕込みカツカレー ¥900<br>ねぎカレー ¥750<br>【営業時間】<br>月～金 11:00 ～ 22:00（LO21:30） <br>土・祝 11:00 ～ 20:30（LO20:00）<br>【定休日】日、年末年始<br>【最寄駅】<br>JR神田駅北口・東口 徒歩2分<br>地下鉄小川町駅A2出口 徒歩6分<br>【住所】千代田区神田鍛冶町3-3 カリガネビル2F<br>【電話】080-2047-7647<br>公式ページ: https://kanda-curry.com/?p=13349]]></description><Point><coordinates>139.770699,35.69316,0</coordinates></Point></Placemark>
<Placemark><name>桜日和</name><styleUrl>#c8</styleUrl><description><![CDATA[【メニュー】<br>〔週替わり〕ぴかいちキーマカレー ￥800<br>コーヒー（アイス/ホット） ￥350<br>クラフトビール ￥650<br>【営業時間】<br>ランチ 12:00～15:00（LO）<br>ディナー 17:00～20:00（LO19:45）<br>【定休日】土日祝、年末年始<br>【最寄駅】<br>地下鉄九段下駅 6番出口徒歩4分<br>地下鉄神保町駅 A2出口徒歩7分<br>【住所】千代田区九段南1-2-1 千代田区役所10F食堂フロア<br>【電話】メールにて sakurabiyori.chiyoda@gmail.com<br>【お知らせ】<br>・エレベーターで10階までお上がりください。<br>・カウンターでご注文下さい。<br>・前払い制です。<br>・テイクアウト容器でのご提供となります。その場でお召し上がりいただいても、お持ち帰りいただいてもOKです！<br>・ぴかいちカレーは、4種類のキーマカレー（王道キーマ、ほうれん草キーマ、トマトキーマ、とうもろこしキーマ）を週替わりでご提供しております。ご来店日のカレーの種類や売り切れの情報等は、Instagramにてご確認ください。<br>公式ページ: https://kanda-curry.com/?p=18677<br>※位置は住所からの推定（概算）]]></description><Point><coordinates>139.75354,35.693947,0</coordinates></Point></Placemark>
<Placemark><name>さんとよん</name><styleUrl>#c8</styleUrl><description><![CDATA[【メニュー】<br>あいがけカレー ¥1,300<br>野菜カレー ￥1,000<br>肉カレー ￥1,100<br>【営業時間】<br>月～金 11:30～15:00（LO14:50）<br>【定休日】水・日<br>祝日は不定期で営業します。<br>【定休日変更のお知らせ】<br> 公式ガイドブックには、定休日を「土日祝 (特別営業あり)」と記載していますが、<br> 定休日が、水曜日と日曜日に変更になりました。<br> また、祝日は不定期で営業いたします。<br> （20260726）<br>【最寄駅】<br>JR飯田橋駅 西口 徒歩4分<br>【住所】千代田区富士見2-4-7 島ビル2F<br>【電話】メールにてお問合せお願いいたします。<br>3to4@320design.net<br>【お知らせ】<br>【定休日変更のお知らせ】<br>公式ガイドブックには、定休日を「土日祝 (特別営業あり)」と記載していますが、<br>定休日が、水曜日と日曜日に変更になりました。<br>また、祝日は不定期で営業いたします。<br>（20260726）<br>※ランチだけの営業です。<br>※カレー無くなり次第、閉店します。<br>公式ページ: https://kanda-curry.com/?p=16264]]></description><Point><coordinates>139.745953,35.69967,0</coordinates></Point></Placemark>
<Placemark><name>Shapla（シャプラ）神田店</name><styleUrl>#c8</styleUrl><description><![CDATA[【メニュー】<br>チキンカレー ランチ￥930／ディナー￥1,130<br>タイグリーンカレー ランチ￥900／ディナー￥1,089<br>日替わりランチ ￥930<br>【営業時間】<br>ランチ 11:30～14:30<br>ディナー 17:30～22:00<br>【定休日】日曜・祝日、年末年始<br>【最寄駅】<br>JR神田駅徒歩１分<br>地下鉄 神田A9出口 徒歩２分<br>【住所】〒101-0044<br>東京都千代田区鍛冶町2－7－6リッツビル２F<br>【電話】03－6273－9343<br>【お知らせ】<br>通常金曜日ディナータイムは予約でほぼ満席なのでお席がない場合が多いです。<br>ご来店の際は店舗に連絡頂いた方がよろしいかと思います。<br>公式ページ: https://kanda-curry.com/?p=6819]]></description><Point><coordinates>139.771841,35.692784,0</coordinates></Point></Placemark>
<Placemark><name>ジャンカレー</name><styleUrl>#c8</styleUrl><description><![CDATA[【メニュー】<br>豚角煮カレー ￥1,300<br>スパイシーキーマカレー ￥1,100<br>ジャンカレー ￥700<br>【営業時間】<br>11:30～21:00 (LO20:50)<br>【定休日】年末年始<br>【最寄駅】<br>末広町駅3番出口より徒歩2分<br>JR秋葉原駅より徒歩7分<br>【住所】千代田区外神田3-6-7 大西ビル1F<br>【電話】03-3254-8833<br>公式ページ: https://kanda-curry.com/?p=1117]]></description><Point><coordinates>139.769738,35.702833,0</coordinates></Point></Placemark>
<Placemark><name>上等カレー 秋葉原店</name><styleUrl>#c8</styleUrl><description><![CDATA[【メニュー】<br>エビカレー ¥1,300<br>ハンバーグカレー ¥1,300<br>トンカツカレー ¥1,200<br>【営業時間】<br>11:00 ~ 23:00(LO22:30)<br>【定休日】無休<br>【最寄駅】<br>JR秋葉原駅 電気街口 徒歩5分&lt;br<br>地下末広町駅 1番出口 徒歩1分<br>【住所】千代田区外神田4-6-1 シューマンビル1F＋B1F<br>【電話】03-3251-2777<br>公式ページ: https://kanda-curry.com/?p=13135]]></description><Point><coordinates>139.771852,35.701962,0</coordinates></Point></Placemark>
<Placemark><name>水道橋カレー＆バル Largo</name><styleUrl>#c8</styleUrl><description><![CDATA[【メニュー】<br>Largoカレー ¥1,200<br>その他<br>Largo焼きカレー ¥1,200<br>とまとバターチキン ¥1,200<br>【営業時間】<br>ランチ 11:30～14:30（LO14:00）<br>ディナー 18:00～22:30（LO22:00）<br>【定休日】水土日祝、お盆、年末年始<br>【最寄駅】<br>JR水道橋駅東口徒歩3分<br>地下鉄水道橋駅A2出口徒歩5分<br>地下鉄神保町駅A2出口徒歩10分<br>【住所】千代田区神田三崎町2-11-12 ENZIN Suidobashi Bldg 2F<br>【電話】03-6272-9267<br>【お知らせ】<br>カレーは無くなり次第終了です<br>公式ページ: https://kanda-curry.com/?p=19794]]></description><Point><coordinates>139.754087,35.701096,0</coordinates></Point></Placemark>
<Placemark><name>スパイス欧風カレーPAIKAJI</name><styleUrl>#c8</styleUrl><description><![CDATA[【メニュー】<br>ラフテーカレー ￥1,450<br>PAIKAJIカレー ￥2,000<br>ハンバーグカレー80ｇ ￥1,500<br>【営業時間】<br>ランチ（月～土） 11:30～15:00（LO14:30）<br>ディナー（水～土） 18:00～21:30（LO21:00)<br>【定休日】日曜日<br>【最寄駅】<br>市ヶ谷駅A3出口 徒歩4分<br>地下鉄半蔵門駅5番出口 徒歩8分<br>【住所】千代田区三番町18-19 アルテビル1F<br>【電話】080-6023-0527<br>公式ページ: https://kanda-curry.com/?p=18672<br>※位置は住所からの推定（概算）]]></description><Point><coordinates>139.740402,35.690456,0</coordinates></Point></Placemark>
<Placemark><name>スパイスカリー はちわん 神保町店</name><styleUrl>#c8</styleUrl><description><![CDATA[【メニュー】<br>メインメニュー名：<br>牛肉ときのこの焦がし味噌カリー×サバとカツオ出汁のココナッツカリー<br>￥1,320<br>その他<br>焼肉屋のメンチカツ ￥275<br>サモサ ￥198<br>【営業時間】<br>月～土ランチ 11:00〜15:00（LO14:30）<br>【定休日】日祝は不定休、年末年始<br>【最寄駅】<br>地下鉄神保町駅A2出口 徒歩5分<br>JR水道橋駅西口 徒歩7分<br>地下鉄九段下駅5番出口 徒歩9分<br>【住所】千代田区西神田2-5-2 TASビル1F<br>【電話】080-3207-4824<br>【お知らせ】<br>ランチのみ提供です。<br>公式ページ: https://kanda-curry.com/?p=19834]]></description><Point><coordinates>139.754337,35.698597,0</coordinates></Point></Placemark>
<Placemark><name>Spice Theater 丸の内</name><styleUrl>#c8</styleUrl><description><![CDATA[【メニュー】<br>メインメニュー：<br>神田カレーGP 限定！ ビンダル×カツカレー（目玉焼き付き）￥1,500<br>その他メニュー：<br>ビリヤニ ￥1,650～<br>3種カリー ￥1,350～<br>【営業時間】<br>月～土 11:00～23:00（LO22:00）<br>日・祝日 11:00～22:00（LO21:00）<br>【定休日】年末年始<br>【最寄駅】<br>地下鉄東京駅地下通路直結 徒歩1分<br>JR東京駅丸の内北口 徒歩3分<br>地下鉄大手町駅 徒歩5分<br>【住所】千代田区丸の内1-5-1 新丸の内ビルディングB1F<br>【電話】03-5860-3718<br>【お知らせ】<br>12時～13時は非常に混み合います。前後のお時間がゆっくり食べられますよ！<br>公式ページ: https://kanda-curry.com/?p=19517]]></description><Point><coordinates>139.763973,35.682355,0</coordinates></Point></Placemark>
<Placemark><name>SPICE NERD</name><styleUrl>#c8</styleUrl><description><![CDATA[【メニュー】<br>メインメニュー<br>2種あいがけカレー ￥1,700<br>その他メニュー<br>いりこ出汁のティムルチキンカレー ￥1,500<br>花椒バルサミコのチキン65（ディナーのみ） ￥1,000<br>【営業時間】<br>平日ランチ 12:00〜15:00（LO14:30）<br>平日ディナー 17:30〜23:00（LO22:00）<br>土日祝 12:00〜23:00（LO22:00）<br>【定休日】火曜日<br>【最寄駅】<br>JR神田駅東口 徒歩3分<br>地下鉄岩本町駅A1出口 徒歩4分<br>【住所】千代田区鍛冶町2-11-17<br>【電話】03-6271-7551<br>【お知らせ】<br>ディナータイムはドリンクオーダー（600円～）が必要です。<br>ディナータイム2階席利用の場合席料300円を頂戴しています。<br>カレーはなくなり次第終了です。<br>カレー以外のスパイス料理でもスタンプOKです。<br>公式ページ: https://kanda-curry.com/?p=19824]]></description><Point><coordinates>139.772076,35.693934,0</coordinates></Point></Placemark>
<Placemark><name>スパイスパレット</name><styleUrl>#c8</styleUrl><description><![CDATA[【メニュー】<br>チキン＆キーマ ￥1,450<br>チキンカレー ￥1,250<br>キーマカレー ￥1,250<br>【営業時間】<br>ランチ(月～土）：11:30～15:00(LO14:30)<br>ディナー（月～金）：17:30～21:00(LO20:30)<br>【定休日】土ディナー・日・祝、年末年始<br>【最寄駅】<br>地下鉄日比谷線秋葉原駅線 1番出口より徒歩約3分<br>JR秋葉原駅 昭和通り口より徒歩約6分<br>地下鉄銀座線 末広町駅 1番出口より徒歩約8分<br>【住所】台東区台東1-9-4 松浦ビル2F<br>【電話】メールでのご連絡をお願いいたします。<br> spicepalette@nonde-tabete.com<br>公式ページ: https://kanda-curry.com/?p=10773]]></description><Point><coordinates>139.775845,35.700876,0</coordinates></Point></Placemark>
<Placemark><name>スマトラカレー 共栄堂</name><styleUrl>#c8</styleUrl><description><![CDATA[【メニュー】<br>ポークカレー ￥1,300<br>ビーフカレー ￥1,700<br>チキンカレー ￥1,500<br>エビカレー ￥1,600<br>タンカレー ￥2,200<br>ハヤシライス ￥1,700<br>焼きりんご（期間限定10月～5月上旬）￥700<br>【営業時間】<br>11:00～20:00（LO19：45）<br>【定休日】日曜（祝日は不定休）、年末年始<br>【最寄駅】<br>都営地下鉄三田線、新宿線、東京メトロ半蔵門線<br>「神保町駅」A５出口<br>【住所】千代田区神田神保町1－6サンビルＢ1<br>【電話】03-3291-1475<br>【お知らせ】<br>祝日は不定休です。ホームページをご確認ください。<br>公式ページ: https://kanda-curry.com/?p=636]]></description><Point><coordinates>139.759358,35.696202,0</coordinates></Point></Placemark>
<Placemark><name>ダイアモンドヘッド</name><styleUrl>#c8</styleUrl><description><![CDATA[【メニュー】<br>シュリンプカレー ￥1,650<br>ガーリックシュリンプ ￥1,200<br>ぷるぷるパンケーキ ￥2,600<br>【営業時間】<br>平日ランチ 11:30~14:00(LO)<br>平日ディナー 17:00~23:00(LO)<br>土日祝 11:30~23:00(LO)<br>【定休日】年末年始<br>【最寄駅】<br>小川町駅 A7出口 徒歩1分<br>淡路町駅 A5出口 徒歩2分<br>【住所】千代田区神田小川町1-6-7 竹田ビル1F<br>【電話】03-6206-8885<br>公式ページ: https://kanda-curry.com/?p=16740]]></description><Point><coordinates>139.765997,35.695265,0</coordinates></Point></Placemark>
<Placemark><name>大衆音楽酒場 WAKASU</name><styleUrl>#c8</styleUrl><description><![CDATA[【メニュー】<br>メインメニュー名：<br>スパイシーチキンカレー（ランチのみ） ￥1,200<br>その他：<br>スパイシーシーフードカレー（ランチのみ） ￥1,200<br>国産鶏の唐揚げ定食（ランチのみ） ￥1,000<br>【営業時間】<br>火～金ランチ 11:30～14:00（LO）<br>月～土ディナー 17:00～23:00（LO22:30）<br>【定休日】日・祝、お盆、年末年始<br>【最寄駅】<br>JR神田駅西口 徒歩4分<br>地下鉄大手町駅A2出口 徒歩6分<br>【住所】千代田区内神田3-4-1 勝康ビル2F<br>【電話】03-4400-8099<br>【お知らせ】<br>カレーはランチのみの提供です。カレーは無くなり次第終了です。<br>二十歳未満の方はテイクアウトをご利用ください（喫煙可能店のため）。<br>公式ページ: https://kanda-curry.com/?p=19822]]></description><Point><coordinates>139.768952,35.689779,0</coordinates></Point></Placemark>
<Placemark><name>dining bar スナックゆうこ</name><styleUrl>#c8</styleUrl><description><![CDATA[【メニュー】<br>薬膳スパイス チキンカレー ランチ￥1,100／ディナー￥1,320<br>薬膳スパイス ポークカレー（ランチのみ） ￥1,200<br>小鉢（ディナーのみ） ￥380～<br>【営業時間】<br>月～土ランチ 10:30〜15:00（LO）<br>月～金ディナー 18:00〜24:00（LO23:00）<br>【定休日】土ディナー・日、年末年始（祝日は不定休）<br>【最寄駅】<br>地下鉄神保町A4出口 徒歩2分<br>【住所】千代田区神田神保町2-24 木下ビル1F<br>【電話】03-6272-3977<br>【お知らせ】<br>飲酒無しで30分以内のご利用の場合、チャージ（500円）無料となります。<br>売り切れ次第終了します。<br>公式ページ: https://kanda-curry.com/?p=11394]]></description><Point><coordinates>139.757094,35.697417,0</coordinates></Point></Placemark>
<Placemark><name>Dining Bar Tigre（ティグレ）</name><styleUrl>#c8</styleUrl><description><![CDATA[【メニュー】<br>２種盛りカレー￥2,300（ランチ￥1,600）<br>スパイシーキーマカレー ￥1,800（ランチ￥1,400）<br>濃厚エビカレー ￥1,800（ランチ￥1,400）<br>【営業時間】<br>月～金 ランチ 11:45～14:00（LO13:45）<br>月火水木 バー 18:00～23:00（LO21:00）<br>金土バー 18:00～25:00（LO21:00）<br>祝 バー 18:00～22:00（LO21:00）<br>【定休日】日曜日、年始<br>【最寄駅】<br>地下鉄 末広町駅2番出口 徒歩１分<br>【住所】千代田区外神田5-2-14-1Ｆ<br>【電話】03-5826-8098<br>【お知らせ】<br>●二十歳未満の方はテイクアウトをご利用ください（喫煙可能店のため）。<br>●カレーが無くなり次第終了です。<br>公式ページ: https://kanda-curry.com/?p=14477]]></description><Point><coordinates>139.772318,35.703862,0</coordinates></Point></Placemark>
<Placemark><name>洋食膳 海カレー TAKEUCHI 神保町本店</name><styleUrl>#c8</styleUrl><description><![CDATA[【メニュー】<br>気まぐれプレート ￥1,600～<br>ライオンビール ￥600<br>本日のラッシー ￥350～<br>【営業時間】<br>10:30〜11:30にオープンいたします<br>カレーがなくなり次第、終了いたします<br>【定休日】不定休、年末年始<br>【最寄駅】<br>地下鉄神保町駅 A5出口 徒歩3分<br>【住所】千代田区 神保町1-20-3 鈴木ビル1F<br>【電話】03-3292-0523<br>公式ページ: https://kanda-curry.com/?p=2798]]></description><Point><coordinates>139.759504,35.696799,0</coordinates></Point></Placemark>
<Placemark><name>だしごはん</name><styleUrl>#c8</styleUrl><description><![CDATA[【メニュー】<br>やきだしごはん忍者カレースパイシープラス唐揚げ ￥1,000<br>少な目－￥50、大盛＋￥100、特盛＋￥200<br>味玉変更 ＋￥100<br>【営業時間】<br>11：30～14：30（LO）<br>【定休日】土・日・祝、お盆、年末年始<br>【最寄駅】<br>地下鉄岩本町駅 A5出口 徒歩2分<br>JR秋葉原駅 昭和通出口 徒歩6分<br>JR神田駅 北口 徒歩9分<br>【住所】千代田区岩本町3-3-11<br>【電話】03-3862-0768<br>【お知らせ】<br>ランチ営業だけです。<br>ごはん無くなり次第閉店します。<br>スタンプラリーでご来店される皆様には最東端で営業時間の短い来店しずらい店舗になってしまいますが、ご理解の程どうぞよろしくお願い致します。<br>公式ページ: https://kanda-curry.com/?p=9666]]></description><Point><coordinates>139.776637,35.695,0</coordinates></Point></Placemark>
<Placemark><name>定食屋いち</name><styleUrl>#c8</styleUrl><description><![CDATA[【メニュー】<br>ドライカレー定食 ￥925<br>カレーロースしょうがやき定食 ￥1,025<br>マヨコーンチーズドライカレー定食 ￥975<br>【営業時間】<br>月～金 朝 8:00～9:30（LO9:00）<br>月～金 ランチ 11:00～15:30（LO15:00）<br>金 ディナー 17:30～21:00（LO20:30）<br>【定休日】土日、他はXで告知<br>【最寄駅】<br>JR神田駅南口 徒歩4分<br>JR新日本橋駅6番出口 徒歩4分<br>【住所】千代田区神田西福田町2-3 ハトヤビル1F<br>【電話】メールにて teishoku001@gmail.com<br>【お知らせ】<br>5千円以上はお釣りが出ません。<br>各種キャッシュレス利用可。<br>情勢により、価格は変更になる場合があります。<br>公式ページ: https://kanda-curry.com/?p=18688<br>※位置は住所からの推定（概算）]]></description><Point><coordinates>139.774109,35.69133,0</coordinates></Point></Placemark>
<Placemark><name>鉄板居酒屋BelonBelonBooとBarボンド</name><styleUrl>#c8</styleUrl><description><![CDATA[【メニュー】<br>トマトと玉ねぎのスパイシーカレー ¥1,100<br>自家製お酢ジュース ¥550<br>自家製お酢サワー ¥660<br>【営業時間】<br>火～土 18:30～翌5:00(LO翌3:00)<br>【定休日】日・月、お盆<br>【最寄駅】<br>JR御徒町駅 南口 徒歩4分<br>地下鉄末広町駅 2番出口 徒歩5分<br>【住所】台東区上野5-7-7 公徳堂ビル102<br>【電話】03-5826-4885<br>【お知らせ】<br>夏季休業<br>8/9-8/18<br>宜しくお願いします<br>（20260717）<br>二十歳未満の方はテイクアウトをご利用ください（喫煙可能店のため）。<br>公式ページ: https://kanda-curry.com/?p=9680]]></description><Point><coordinates>139.775081,35.704207,0</coordinates></Point></Placemark>
<Placemark><name>TOKYO CURRY BUCCI</name><styleUrl>#c8</styleUrl><description><![CDATA[【メニュー】<br>BUCCI牛タンハンバーグＷカレー ￥1,660<br>牛タンキーマカレー ￥1,100<br>和風牛タンそぼろカレー ￥1,250<br>【営業時間】<br>ランチ 11:00～14:00（LO）<br>ディナー 17:30～22:00（LO21:00）<br>【定休日】土日祝、お盆、年末年始<br>【最寄駅】<br>JR飯田橋駅東口 徒歩7分<br>地下鉄飯田橋駅A5出口徒歩4分<br>地下鉄九段下駅7番出口徒歩6分<br>【住所】千代田区飯田橋1-10-1 六川ビル1F<br>【電話】03-5215-7272<br>【お知らせ】<br>夜は日本酒居酒屋の為ご飲酒を伴わないご予約は承れません。<br>公式ページ: https://kanda-curry.com/?p=15511]]></description><Point><coordinates>139.747906,35.69952,0</coordinates></Point></Placemark>
<Placemark><name>東京カレー屋名店会</name><styleUrl>#c8</styleUrl><description><![CDATA[【メニュー】<br>5店盛りコンボカレー ￥3,500<br>名店会オリジナル チキンカリー ￥1,050<br>デリー カシミールカレー ￥1,450<br>【営業時間】<br>11:00～23:00（LO22:30）<br>【定休日】不定休（有楽町イトシアに準ずる）<br>【最寄駅】<br>JR有楽町駅 D7出口 徒歩2分<br>【住所】千代田区有楽町2-7-1 有楽町イトシアB1F<br>【電話】03-3211-0616<br>公式ページ: https://kanda-curry.com/?p=14466]]></description><Point><coordinates>139.76381,35.674103,0</coordinates></Point></Placemark>
<Placemark><name>トプカ 神田本店</name><styleUrl>#c8</styleUrl><description><![CDATA[【メニュー】<br>インド風ポークカリー ￥1,300<br>純野菜カリー ￥1,250<br>欧風牛すじカリー ￥1,400<br>【営業時間】<br>平日ランチ 11：00～15：30（LO）<br>平日ディナー 17：30～22：30（LO21：30）（カレーレストラン＋居酒屋）<br>土・日・祝 11：30～18：00（LO17：45）<br>【定休日】年末年始<br>【最寄駅】<br>JR 神田駅<br>地下鉄 淡路町駅<br>新御茶ノ水駅 A3 徒歩3分<br>【住所】千代田区 神田須田町1-11<br>【電話】03-3255-0707<br>公式ページ: https://kanda-curry.com/?p=2196]]></description><Point><coordinates>139.769182,35.696282,0</coordinates></Point></Placemark>
<Placemark><name>丼達</name><styleUrl>#c8</styleUrl><description><![CDATA[【メニュー】<br>丼達カレー ￥920<br>チーズ丼達カレー ¥1,050<br>小盛り丼 100円引き<br>【営業時間】<br>月火木金 11:30～19:30（LO）<br>水曜日 11:30～17:00（LO）<br>土曜日 11:30～15:00（LO）<br>【定休日】日曜・祝日、お盆、年末年始<br>【最寄駅】<br>JR水道橋駅東口 徒歩2～3分<br>【住所】千代田区三崎町2‐11‐13 MMビル2 102<br>【電話】03‐3239‐7554<br>公式ページ: https://kanda-curry.com/?p=6763]]></description><Point><coordinates>139.754214,35.701102,0</coordinates></Point></Placemark>
<Placemark><name>長崎トルコライス食堂</name><styleUrl>#c8</styleUrl><description><![CDATA[【メニュー】<br>カレーが主役のトルコライス ¥1,280<br>ポークカツカレー ￥1,050<br>スペシャル長崎トルコライス ¥1,650<br>【営業時間】<br>11:30～21:00(LO19:30)<br>【定休日】不定休（主に月、火曜と11月の第1水曜）<br>【最寄駅】<br>JR秋葉原電気街口より徒歩2分<br>【住所】千代田区神田練塀町8-2 ちゃばら内<br>【電話】03-6206-9223<br>【お知らせ】<br>ディナータイムはワンドリンク制となります（平日19時～、土日祝18時〜）<br>公式ページ: https://kanda-curry.com/?p=13325]]></description><Point><coordinates>139.773083,35.699927,0</coordinates></Point></Placemark>
<Placemark><name>新潟カツ丼タレカツ神田今川橋店</name><styleUrl>#c8</styleUrl><description><![CDATA[【メニュー】<br>カツカレー ￥1,230<br>野菜カツカレー ￥1,510<br>カツと海老の合いもりカレー ￥1,660<br>【営業時間】<br>月〜土 11:00～22:30（LO22:00）<br>日・祝 11:00～21:30（LO21:00）<br>【定休日】年末年始<br>【最寄駅】<br>JR神田駅東口南口徒歩3分<br>地下鉄神田駅1番出口徒歩3分<br>【住所】千代田区鍛冶町1-7-11 KCAビル1F<br>【電話】03-3518-5520<br>公式ページ: https://kanda-curry.com/?p=18702]]></description><Point><coordinates>139.771988,35.690617,0</coordinates></Point></Placemark>
<Placemark><name>ハンバーグ専門店 松屋精肉店</name><styleUrl>#c8</styleUrl><description><![CDATA[【メニュー】<br>肉屋のインディアンカレー ¥1,280<br>国産牛ハンバーグ定食（2個盛）￥1,580<br>国産牛ハンバーグ定食（3個盛）￥2,080<br>【営業時間】<br>火～金ランチ 11:30～14:30(LO14:00)<br>火～金ディナー 17:30～21:30(LO21:00)<br>土日祝ランチ 11:30～15:30(LO15:00)<br>土日祝ディナー 17:30～21:30(LO21:00)<br>【定休日】月曜日、年末年始<br>【最寄駅】<br>銀座線末広町駅2番出口 徒歩5分<br>JR御徒町駅南口 徒歩5分<br>JR秋葉原駅電気街口 徒歩10分<br>【住所】千代田区外神田5-4-2 末広ビル1F<br>【電話】03-5846-8806<br>【お知らせ】<br>売切れ次第終了となります。<br>テイクアウトは平日のみです。<br>状況によってテイクアウトの対応ができない場合があります。<br>公式ページ: https://kanda-curry.com/?p=15480]]></description><Point><coordinates>139.772746,35.704742,0</coordinates></Point></Placemark>
<Placemark><name>ヒナタ屋 神保町本店</name><styleUrl>#c8</styleUrl><description><![CDATA[【メニュー】<br>2種のカレープレート ￥1,520<br>トマトクリームカレー ￥1,200<br>チキンカレー ￥1,200<br>【営業時間】<br>月～土 11:30～15:00（L.O）<br>【定休日】日・祝、お盆、年末年始<br>【最寄駅】<br>JR御茶ノ水駅<br>地下鉄神保町駅A5徒歩5分<br>【住所】千代田区神田小川町3-10 振天堂ビル４F<br>【電話】03-5848-7520<br>【お知らせ】<br>ランチだけの営業です。<br>公式ページ: https://kanda-curry.com/?p=814]]></description><Point><coordinates>139.761388,35.696455,0</coordinates></Point></Placemark>
<Placemark><name>日乃屋カレー 御茶ノ水</name><styleUrl>#c8</styleUrl><description><![CDATA[【メニュー】<br>カツカレー＆カレースパゲティ ￥1,500<br>牛すじ煮込みカレー￥1,300<br>チキン南蛮タルタルカレー￥1,200<br>【営業時間】<br>平日 11:00~20:30（LO）<br>土日祝 11:00～14:30（LO）<br>※ルウがなくなり次第 早めに営業終了する場合がございます。<br>【定休日】不定休、お盆、年末年始<br>【最寄駅】<br>JR御茶ノ水駅 聖橋口より 徒歩30秒<br>【住所】千代田区神田駿河台2-10-3<br>【電話】03-6273-7539<br>【お知らせ】<br>ルウがなくなり次第、 早めに営業終了する場合がございます。<br>公式ページ: https://kanda-curry.com/?p=9670]]></description><Point><coordinates>139.76418,35.699038,0</coordinates></Point></Placemark>
<Placemark><name>日乃屋カレー 神田</name><styleUrl>#c8</styleUrl><description><![CDATA[【メニュー】<br>名物カツカレー ¥780<br>日乃屋カレー（温玉or生卵） ¥650<br>名代上メンチカツカレー ¥780<br>【営業時間】<br>月～金ランチ 11:00～16:00（LO15:45）<br>月～金ディナー 17:00～19:30（LO19:15）<br>土曜日 11:00～15:00（LO14:45）<br>【定休日】日・祝、お盆、年末年始<br>【最寄駅】<br>JR神田駅東口 徒歩３分<br>【住所】千代田区鍛冶町2-11-16<br>【電話】03-6206-4795<br>公式ページ: https://kanda-curry.com/?p=828]]></description><Point><coordinates>139.772235,35.694205,0</coordinates></Point></Placemark>
<Placemark><name>日乃屋カレー 神保町店</name><styleUrl>#c8</styleUrl><description><![CDATA[【メニュー】<br>焼きチキンカレー（平日ランチ限定） ¥1,100<br>日乃屋カレー（トッピングなし） ¥750<br>手仕込みカツカレー ¥1,100<br>【営業時間】<br>10:00～21:00(LO)<br>【定休日】年末年始<br>【最寄駅】<br>神保町駅 A5出口 徒歩2分<br>【住所】千代田区神田神保町1-4 1-4ビル1F<br>【電話】03-6886-6015<br>公式ページ: https://kanda-curry.com/?p=16731]]></description><Point><coordinates>139.759896,35.696198,0</coordinates></Point></Placemark>
<Placemark><name>美味これくしょん神田倶楽部</name><styleUrl>#c8</styleUrl><description><![CDATA[【メニュー】<br>スパイス香るカレールージュ ￥1,300<br>ほうれん草たっぷりグリーンカレー ￥1,300<br>ビーフオムライス ￥2,950<br>---------------<br>公式ガイドブック2026には、<br>ほうれん草たっぷりグリーンカレーの料金が、<br>￥1,200 と記載がありますが、<br>正しくは、￥1,300 です。<br>何卒よろしくお願いいたします。<br>（20260707）<br>【営業時間】<br>ランチ 11:30〜14:30（LO 14:00）<br>ディナー17:00〜22:30（LO 21:15）<br>【定休日】土・日・祝、お盆、年末年始<br>【最寄駅】<br>地下鉄大手町・竹橋・淡路町・小川町徒歩5分<br>【住所】千代田区神田錦町2-7-22 ワールドビル1階<br>【電話】03-5280-5858<br>【お知らせ】<br>公式ガイドブック2026には、<br>ほうれん草たっぷりグリーンカレーの料金が、<br>￥1,200 と記載がありますが、<br>正しくは、￥1,300 です。<br>何卒よろしくお願いいたします。<br>（20260707）<br>公式ページ: https://kanda-curry.com/?p=3426]]></description><Point><coordinates>139.763067,35.691522,0</coordinates></Point></Placemark>
<Placemark><name>ファニーティップス</name><styleUrl>#c8</styleUrl><description><![CDATA[【メニュー】<br>アサイーカレーボウル ￥1,490<br>アサイーカレー＆グリークヨーグルト ￥2,000<br>ミニアサイーカレーボウル（テイクアウトのみ） ￥500<br>【営業時間】<br>8:00～14:30（LO）<br>【定休日】火曜日、お盆、年末年始<br>【最寄駅】<br>地下鉄末広町駅2番出口徒歩3分<br>JR御徒町駅南口徒歩5分<br>JR秋葉原駅電気街北口徒歩10分<br>【住所】千代田区外神田5-5-7 パンセ秋葉原B1F<br>【電話】03-6684-9954<br>【お知らせ】<br>ミニアサイーカレーボウルはスタンプラリー期間限定です。<br>店内飲食時は1名様最低1オーダーをお願いします。<br>公式ページ: https://kanda-curry.com/?p=18668]]></description><Point><coordinates>139.772903,35.704365,0</coordinates></Point></Placemark>
<Placemark><name>FISH 丸の内店</name><styleUrl>#c8</styleUrl><description><![CDATA[【メニュー】<br>メインメニュー：<br>チキンカレー（3種コンボ） ￥1,500<br>（メイン：チキンカレー＋キーマカレー＋mix豆カレー）<br>その他メニュー：<br>2代目フィッシュカレー（シングル） ￥1,400<br>ポークカレー（3種コンボ） ￥1,500<br>【営業時間】<br>11:00～21:00（LO20:30）<br>※テイクアウトはLO20:30<br>【定休日】年末年始<br>【最寄駅】<br>JR東京駅 丸の内北口 徒歩1分<br>地下鉄大手町駅 B2b・B2c出口 徒歩1分<br>【住所】千代田区丸の内1-6-4 丸の内オアゾ B1F<br>【電話】03-6810-2316<br>【お知らせ】<br>8月3日は臨時休業とさせていただきます。<br>（20260730）<br>公式ページ: https://kanda-curry.com/?p=14316]]></description><Point><coordinates>139.766707,35.684064,0</coordinates></Point></Placemark>
<Placemark><name>豚バル ピッグテイル</name><styleUrl>#c8</styleUrl><description><![CDATA[【メニュー】<br>豚フィレ フォアグラカレー ￥2,310<br>黒ビール豚カレー ￥1,210<br>黒ビール豚野菜カレー ￥1,320<br>【営業時間】<br>火～土 17:05～24:00（LO23:00）<br>日曜日 17:05～23:00（LO22:00）<br>【定休日】月・祝・第3日曜、夏期休暇、年末年始<br>【最寄駅】<br>都営新宿線 新保町駅 A5<br>中央線 御茶ノ水駅 御茶ノ水口<br>【住所】千代田区 神田小川町3－10 振天堂戸田ビル3F<br>【電話】03-3295-6660<br>【お知らせ】<br>●8/1は、終日貸切となります。<br>●10/24〜10/29は、遅めの夏季休暇とさせていただきます。<br>●貸切中のテイクアウトはありません。<br>●スタンプラリー中は【スマホ版】で貸切情報をお知らせいたします。<br>（20260717）<br>●スタンプラリーでチャージサービス（1回限り）。<br>●Instagramなどで貸切情報を必ずご確認ください。<br>●二十歳未満の方はテイクアウトをご利用ください（喫煙可能店のため）。<br>公式ページ: https://kanda-curry.com/?p=2905]]></description><Point><coordinates>139.761467,35.696499,0</coordinates></Point></Placemark>
<Placemark><name>べっぴん舍</name><styleUrl>#c8</styleUrl><description><![CDATA[【メニュー】<br>べっぴん牛すじカリー ￥1,300<br>赤のべっぴん薬膳カリー ￥1,100<br>黒のカシミールカリー ￥1,200<br>【営業時間】<br>ランチ 11：00～15：30（LO15：00）<br>※当面の間ランチのみ営業<br>【定休日】月・水、夏季休業、年末年始<br>【最寄駅】<br>地下鉄 神保町駅A5出口 徒歩5分<br>地下鉄 新御茶ノ水駅B3b出口 徒歩5分<br>JR御茶ノ水駅 御茶ノ水橋口出口 徒歩6分<br>【住所】千代田区神田小川町3-10-1 駿台ビル2階<br>【電話】080-7896-5596<br>【お知らせ】<br>ランチのみの営業です。<br>公式ページ: https://kanda-curry.com/?p=4930]]></description><Point><coordinates>139.761282,35.69587,0</coordinates></Point></Placemark>
<Placemark><name>MITAN</name><styleUrl>#c8</styleUrl><description><![CDATA[【メニュー】<br>MITAN特製ヘルシーベジタブルカレー ￥1,500（ランチのみ）<br>黒毛和牛のローストビーフ ￥1,500<br>ベイクドチーズケーキ ￥800<br>【営業時間】<br>平日ランチ 11:00～14:00（L014:00）<br>平日ディナー 17:00～22:00（L021:00）<br>土日祝ランチ 11:00～14:00（L014:00）<br>【定休日】不定休<br>【最寄駅】<br>JR丸の内北口、地下鉄丸の内線<br>東京駅 徒歩1分<br>【住所】千代田区丸の内1-5-1新丸ビル地下1階<br>【電話】03-3212-7305<br>【お知らせ】<br>カレーはランチのみの提供です。<br>公式ページ: https://kanda-curry.com/?p=9672]]></description><Point><coordinates>139.764015,35.682701,0</coordinates></Point></Placemark>
<Placemark><name>Music BAR 音STAGE 2nd</name><styleUrl>#c8</styleUrl><description><![CDATA[【メニュー】<br>みなみカレー ￥930<br>ハーフライスカレー ￥870<br>ルーのみカレー ￥690<br>【営業時間】<br>月～土 18:00～23:30（LO22:30）<br>貸切もあるため、営業日時はHPやinstagram、Xのカレンダーを事前にご確認ください。<br>【定休日】日祝<br>【最寄駅】<br>JR神田駅西口徒歩1分<br>【住所】千代田区内神田3-7-4 香文堂ビルB1F<br>【電話】03-3527-1979<br>【お知らせ】<br>カレーのみご注文の場合、チャージ無料のお席1時間制。<br>貸切もあるため、営業日時は HP や instagram、X のカレンダーを事前にご確認ください。<br>カレーは数量限定になりますので、必ず注文したい方は前日までにお電話かメールにてご予約をお勧め致します。<br>公式ページ: https://kanda-curry.com/music-bar-音stage-2nd/]]></description><Point><coordinates>139.770111,35.691044,0</coordinates></Point></Placemark>
<Placemark><name>モチヅキカレー</name><styleUrl>#c8</styleUrl><description><![CDATA[【メニュー】<br>チキンカレー ¥890<br>ポークビンダルー ¥990<br>スタンプラリー用ハーフカレーご用意あり<br>【営業時間】<br>月～木・土 11:00～19:00（LO18:45）<br>金曜日 11:00～20:30（LO20:15）<br>【定休日】日・祝、年末年始<br>【最寄駅】<br>銀座線 末広町駅 出口4 徒歩40秒<br>JR秋葉原駅 徒歩9分<br>【住所】千代田区外神田6-12-9 中鉄ビル1F<br>【電話】mochizukicurry@gmail.com<br>【お知らせ】<br>セルフサービスです。<br>公式ページ: https://kanda-curry.com/?p=12913]]></description><Point><coordinates>139.771133,35.703424,0</coordinates></Point></Placemark>
<Placemark><name>焼肉モリちゃん 御茶ノ水店</name><styleUrl>#c8</styleUrl><description><![CDATA[【メニュー】<br>国産和牛の焼きしゃぶカレー（ランチ限定） ￥1,300<br>生卵 ￥100<br>国産和牛の焼きしゃぶ定食 ￥2,100<br>【営業時間】<br>ランチ 11:30～15:30（LO15:00）<br>【定休日】年末年始<br>【最寄駅】<br>地下鉄神保町駅 A5出口 徒歩4分<br>JR御茶ノ水駅 お茶の水橋口 徒歩5分<br>【住所】千代田区神田小川町3-10-11<br>【電話】03-5282-4823<br>【お知らせ】<br>カレーはランチタイムのみです。<br>公式ページ: https://kanda-curry.com/?p=14431]]></description><Point><coordinates>139.761173,35.69634,0</coordinates></Point></Placemark>
<Placemark><name>やっぱりカレーは金曜日だよね</name><styleUrl>#c8</styleUrl><description><![CDATA[【メニュー】<br>月替り海自カレー＆ブルーインパルスセット ￥1,600～<br>(毎月のカレーによって値段が変わります)<br>月替わり海自＆選べる陸自の食べ比べカレー ￥1,500〜<br>月替り海自カレー（単品） ￥1,150～<br>【営業時間】<br>月～金 11:00～20:30(LO20:00)<br>土曜日 11:00～18:30(LO18:00)<br>【定休日】日曜日、お盆、金曜日以外の祝日<br>【最寄駅】<br>地下鉄市ヶ谷駅 A4 徒歩４分<br>【住所】千代田区九段北4-1-35 GLAX市ヶ谷102<br>【電話】03-6380-8666<br>【お知らせ】<br>大変残念ですが、「やっぱりカレーは金曜日だよね」は、2026年9月25日をもちまして、閉店することとなりました。<br>グランドマイスターを目指してすでにスタンプを集めた方には大変申し訳ありませんが、<br>「やっぱりカレーは金曜日だよね」 のスタンプが無くても、グランドマイスター獲得となります。<br>どうぞよろしくお願いいたします。<br>（20260822）<br>------------<br>カレー無くなり次第終了。<br>公式ページ: https://kanda-curry.com/やっぱりカレーは金曜日だよね/]]></description><Point><coordinates>139.7406,35.692832,0</coordinates></Point></Placemark>
<Placemark><name>肆-YON-</name><styleUrl>#c8</styleUrl><description><![CDATA[【メニュー】<br>サバキーマ ￥1,500<br>肆オリジナルサバカレー ￥1,400<br>スパイスおつまみ三点盛り ￥1,400<br>【営業時間】<br>ランチ 11:30～14:00(LO)<br>カフェ 14:00～17:00<br>ディナー 17:00～23:30（LO22:30）<br>※営業時間の変更は、instagram や X でお知らせします。<br>【定休日】不定休 <br> ※休業日はSNSでお知らせします。<br>【最寄駅】<br>地下鉄神保町駅A7出口徒歩1分<br>【住所】千代田区神田神保町1-9-23<br>【電話】03-5801-6464<br>【お知らせ】<br>・休業日や営業時間の変更は、instagram や X でお知らせします。<br>・地下貸切イベントの場合は1Fカウンターでの提供です。<br>・14:00～17:00はカレーとパンメニューのみの提供です<br>公式ページ: https://kanda-curry.com/?p=18682<br>※位置は住所からの推定（概算）]]></description><Point><coordinates>139.758453,35.695793,0</coordinates></Point></Placemark>
<Placemark><name>ラホール 外神田店</name><styleUrl>#c8</styleUrl><description><![CDATA[【メニュー】<br>﻿ブラックほうれん草カレー ¥1,080<br>日本風チキンカレー ￥900<br>インド風カツカレー ￥980<br>【営業時間】<br>11：00～20：00（LO19：30）<br>【定休日】火曜日（祝日の場合は翌日）、お盆、年末年始<br>【最寄駅】<br>秋葉原駅電気街口 徒歩5分<br>地下鉄末広町駅 3番 徒歩2<br>【住所】千代田区外神田3-10-9木村ビル1階<br>【電話】03-3251-9030<br>公式ページ: https://kanda-curry.com/?p=1785]]></description><Point><coordinates>139.770863,35.701039,0</coordinates></Point></Placemark>
<Placemark><name>lei 小麦を使わない国産ビストロ</name><styleUrl>#c8</styleUrl><description><![CDATA[【メニュー】<br>もち豚燻製カレー ￥1,200<br>オムレツカレー ￥1,350<br>もち豚の燻製サラダプレート ￥1,200<br>【営業時間】<br>月～金ランチ 11:30～14:00（LO13:30）<br>【定休日】土・日・祝、年末年始、不定休<br>【最寄駅】<br>JR秋葉原駅 昭和通り口 徒歩6分<br>地下鉄秋葉原駅 1番出口 徒歩5分<br>地下鉄岩本町駅 A4出口 徒歩9分<br>【住所】千代田区神田和泉町1-13-11 和泉町中央ビルB1F<br>【電話】080-2595-5464<br>【お知らせ】<br>カレーはランチのみの提供です。<br>公式ページ: https://kanda-curry.com/?p=18693<br>※位置は住所からの推定（概算）]]></description><Point><coordinates>139.77597,35.699192,0</coordinates></Point></Placemark>
<Placemark><name>RESTAURANT 1899 OCHANOMIZU</name><styleUrl>#c8</styleUrl><description><![CDATA[【メニュー】<br>1899和出汁キーマカレー ￥1,200<br>国産牛ステーキ膳 ¥1,880（数量限定）<br>抹茶味噌の鯛茶漬け ¥1,380<br>【営業時間】<br>ランチ 11:00～14:00（LO13:30）<br>カフェ 14:00～17:30（LO17:00）<br>月～土ディナー 17:00～22:00（LO21:30）<br>【定休日】日と祝日のディナータイム、年末年始<br>【最寄駅】<br>地下鉄千代田線 新御茶ノ水駅 B3a出口 徒歩1分<br>地下鉄丸の内線 淡路町駅 B3a出口 徒歩1分<br>【住所】千代田区神田駿河台3‐4<br>【電話】03-3251-1150<br>【お知らせ】<br>【貸切日・休業日について】<br>貸切営業や休業日を以下のページでご案内しております。<br>https://1899.jp/ochanomizu/kasikiri/<br>公式ページ: https://kanda-curry.com/?p=11357]]></description><Point><coordinates>139.765711,35.696436,0</coordinates></Point></Placemark>
<Placemark><name>レストラン エフ（主婦会館プラザエフ）</name><styleUrl>#c8</styleUrl><description><![CDATA[【メニュー】<br>南極シェフの特製エフカレー（サラダ、スープ付） ￥1,650～<br>肉、魚選べる日替わり平日限定ランチ ￥1,650～<br>日替わりパスタランチ ￥1,430～<br>【営業時間】<br>ランチ 11:30～14:00（LO13:45）<br>カフェ 14:00～17:00（LO16:30）<br>【定休日】お盆、年末年始<br>【最寄駅】<br>JR四ツ谷駅麹町口 徒歩1分<br>南北線四ツ谷駅3番出口 徒歩3分<br>丸の内線四ツ谷駅1番出口 徒歩3分<br>【住所】千代田区六番町15番地 主婦会館プラザエフ2F<br>【電話】03-3265-8115<br>【お知らせ】<br>カレーはランチとカフェタイムでの提供です。<br>土日祝およびカフェタイムは休業の場合があります。<br>電話でご確認ください。カレーは無くなり次第終了。<br>南極シェフの特製エフカレー、肉、魚選べる日替わり平日限定ランチ、日替わりパスタのいずれも、ランチタイムはコーヒーがセットで付きますが、カフェタイムは付きませんので、何卒ご了承ください。<br>公式ページ: https://kanda-curry.com/?p=11426]]></description><Point><coordinates>139.731916,35.686003,0</coordinates></Point></Placemark>
</Folder>
</Document></kml>